{"type":"FeatureCollection", "features": [
{"type":"Feature","geometry":{"type":"Polygon","coordinates":[[[-88.5488,48.7356],[-88.5507,48.7375],[-88.5639,48.7382],[-88.5832,48.7385],[-88.5984,48.7386],[-88.6829,48.7383],[-88.6833,48.7384],[-88.7059,48.7383],[-88.7349,48.7376],[-88.742,48.7375],[-88.7792,48.7376],[-88.7792,48.7237],[-88.7799,48.6938],[-88.7799,48.6754],[-88.779,48.6604],[-88.7796,48.6431],[-88.7805,48.6428],[-88.8028,48.6427],[-88.8019,48.6278],[-88.8086,48.6275],[-88.8085,48.6199],[-88.8015,48.6203],[-88.8005,48.6057],[-88.8152,48.6057],[-88.8732,48.606],[-88.9491,48.6054],[-88.9779,48.6051],[-88.9916,48.6051],[-89.0718,48.6044],[-89.0999,48.6043],[-89.1068,48.6045],[-89.137,48.604],[-89.1758,48.6034],[-89.1875,48.6035],[-89.1852,48.5898],[-89.1837,48.5772],[-89.1807,48.5734],[-89.1814,48.5684],[-89.1823,48.5682],[-89.1827,48.5468],[-89.1825,48.5431],[-89.1832,48.535],[-89.1826,48.5146],[-89.2298,48.5152],[-89.2416,48.5148],[-89.2802,48.5148],[-89.2853,48.5149],[-89.2968,48.5147],[-89.3245,48.5149],[-89.3286,48.5151],[-89.3458,48.5147],[-89.3501,48.5154],[-89.3528,48.515],[-89.3728,48.515],[-89.3873,48.5148],[-89.4056,48.5143],[-89.415,48.5144],[-89.429,48.5143],[-89.4502,48.5144],[-89.4557,48.515],[-89.4666,48.5155],[-89.471,48.5155],[-89.4776,48.5149],[-89.4816,48.5157],[-89.4926,48.5159],[-89.4958,48.5158],[-89.5023,48.5146],[-89.5151,48.5147],[-89.5548,48.5148],[-89.5757,48.5164],[-89.5946,48.5156],[-89.5956,48.5175],[-89.5945,48.5248],[-89.5997,48.5249],[-89.5999,48.5295],[-89.6124,48.5286],[-89.6125,48.5231],[-89.6241,48.5226],[-89.6239,48.5211],[-89.6283,48.5211],[-89.6592,48.5283],[-89.6742,48.5317],[-89.6968,48.537],[-89.722,48.5429],[-89.7636,48.5526],[-89.7645,48.5343],[-89.7652,48.5287],[-89.766,48.4979],[-89.7658,48.4682],[-89.7663,48.4625],[-89.7679,48.4298],[-89.7659,48.4124],[-89.7656,48.4066],[-89.7658,48.3983],[-89.7656,48.3832],[-89.7654,48.3495],[-89.7653,48.3269],[-89.7654,48.325],[-89.7655,48.3021],[-89.7652,48.3001],[-89.7654,48.2897],[-89.7651,48.2785],[-89.7654,48.2781],[-89.7654,48.2638],[-89.7657,48.2426],[-89.766,48.2413],[-89.7663,48.2289],[-89.767,48.2253],[-89.7666,48.2231],[-89.7661,48.2101],[-89.7659,48.1879],[-89.766,48.1722],[-89.7663,48.1678],[-89.7658,48.1587],[-89.7415,48.1587],[-89.7283,48.1584],[-89.702,48.1585],[-89.702,48.106],[-89.7052,48.0917],[-89.7061,48.0755],[-89.707,48.0556],[-89.7082,48.0148],[-89.7094,48.0106],[-89.7079,48.0103],[-89.7058,48.0079],[-89.7026,48.0063],[-89.6885,48.0108],[-89.6868,48.0108],[-89.6845,48.0095],[-89.6806,48.0101],[-89.6737,48.0115],[-89.6688,48.0079],[-89.6666,48.0074],[-89.6636,48.0089],[-89.6629,48.0104],[-89.6574,48.0102],[-89.656,48.0079],[-89.653,48.0043],[-89.6489,48.0037],[-89.6472,48.0057],[-89.6444,48.0063],[-89.6418,48.0058],[-89.64,48.0039],[-89.6372,48.0038],[-89.6369,48.0051],[-89.6384,48.0085],[-89.6367,48.0094],[-89.6298,48.0103],[-89.6266,48.0116],[-89.6232,48.0116],[-89.6201,48.0107],[-89.6179,48.0111],[-89.616,48.0127],[-89.6144,48.0152],[-89.6112,48.0178],[-89.6095,48.0174],[-89.6099,48.0151],[-89.6085,48.0119],[-89.6105,48.01],[-89.6078,48.0066],[-89.6039,48.0061],[-89.5972,48.0043],[-89.5945,48.0044],[-89.5861,48.0018],[-89.5849,47.998],[-89.5824,47.9964],[-89.5807,47.9963],[-89.5729,47.9976],[-89.5709,47.9982],[-89.5647,48.0026],[-89.4894,48.0146],[-89.4226,47.9968],[-89.3374,47.9741],[-89.3057,47.9873],[-89.2747,48],[-89.2163,48.0242],[-89.1258,48.0616],[-89,48.1132],[-89,48.189],[-89,48.2468],[-89.0111,48.2468],[-89.0275,48.2474],[-89.0301,48.2499],[-89.0338,48.25],[-89.0372,48.2491],[-89.0385,48.2495],[-89.0432,48.2493],[-89.0474,48.2511],[-89.049,48.2529],[-89.0494,48.2545],[-89.0514,48.2557],[-89.0518,48.2579],[-89.0507,48.259],[-89.0507,48.2619],[-89.0496,48.2623],[-89.0497,48.2656],[-89.0504,48.2668],[-89.0524,48.2673],[-89.056,48.266],[-89.0601,48.2678],[-89.0624,48.2677],[-89.0671,48.2697],[-89.0699,48.273],[-89.0751,48.2731],[-89.0768,48.2721],[-89.0805,48.2715],[-89.0819,48.2719],[-89.0888,48.27],[-89.0914,48.2689],[-89.1036,48.2657],[-89.1065,48.2669],[-89.11,48.2675],[-89.0804,48.3272],[-89.0652,48.3577],[-89.0446,48.3994],[-89.1482,48.3994],[-89.1956,48.3993],[-89.1724,48.425],[-89.1427,48.4582],[-89.154,48.4611],[-89.1621,48.4634],[-89.1677,48.4647],[-89.1665,48.4665],[-89.1612,48.4705],[-89.1545,48.4726],[-89.1537,48.4747],[-89.1522,48.4749],[-89.1501,48.4771],[-89.1483,48.4779],[-89.1426,48.4794],[-89.1417,48.4811],[-89.1329,48.4823],[-89.1307,48.4828],[-89.131,48.484],[-89.1278,48.4853],[-89.1242,48.4862],[-89.1158,48.4874],[-89.1072,48.488],[-89.1032,48.4878],[-89.0993,48.4853],[-89.0951,48.4856],[-89.0927,48.4866],[-89.0802,48.4893],[-89.0774,48.4889],[-89.072,48.4904],[-89.0672,48.4908],[-89.0623,48.4908],[-89.0597,48.4895],[-89.0588,48.4912],[-89.0593,48.4933],[-89.0577,48.4948],[-89.053,48.4959],[-89.0455,48.4985],[-89.041,48.4993],[-89.0385,48.4993],[-89.0354,48.5],[-89.0316,48.5002],[-89.0283,48.5009],[-89.0245,48.5024],[-89.0227,48.5026],[-89.0218,48.5041],[-89.0183,48.504],[-89.0157,48.5048],[-89.011,48.5067],[-89.0064,48.5094],[-89.0019,48.5112],[-89.0001,48.5027],[-88.9987,48.4971],[-88.9964,48.4937],[-88.9933,48.4912],[-88.98,48.4905],[-88.9723,48.491],[-88.9689,48.4924],[-88.9707,48.5098],[-88.9598,48.5118],[-88.9568,48.5129],[-88.9541,48.5153],[-88.957,48.5164],[-88.9588,48.5183],[-88.9586,48.5198],[-88.9568,48.5215],[-88.9518,48.5225],[-88.9479,48.5241],[-88.946,48.523],[-88.9432,48.5231],[-88.944,48.5247],[-88.9427,48.5265],[-88.9313,48.5254],[-88.9292,48.524],[-88.9309,48.5223],[-88.9297,48.5194],[-88.9281,48.5195],[-88.9262,48.5209],[-88.9242,48.5208],[-88.9225,48.5216],[-88.9216,48.5239],[-88.9232,48.5254],[-88.9253,48.5262],[-88.9268,48.528],[-88.9267,48.5294],[-88.9245,48.5334],[-88.9225,48.5354],[-88.9181,48.5374],[-88.9179,48.538],[-88.914,48.5391],[-88.9118,48.5408],[-88.9085,48.5425],[-88.9051,48.5432],[-88.8978,48.5421],[-88.8951,48.5429],[-88.8924,48.5424],[-88.8894,48.5434],[-88.8847,48.5444],[-88.8814,48.5437],[-88.8799,48.5451],[-88.8772,48.5446],[-88.8749,48.5424],[-88.8792,48.5397],[-88.8814,48.5394],[-88.8862,48.5379],[-88.8879,48.5386],[-88.8919,48.5367],[-88.8937,48.5343],[-88.8898,48.5351],[-88.8875,48.5365],[-88.8791,48.5386],[-88.8708,48.5396],[-88.8687,48.5407],[-88.8701,48.5428],[-88.8719,48.5431],[-88.871,48.5454],[-88.8685,48.5453],[-88.8694,48.5473],[-88.8674,48.549],[-88.8632,48.5498],[-88.8604,48.5518],[-88.8556,48.5544],[-88.8545,48.5557],[-88.8512,48.5569],[-88.8474,48.5592],[-88.8439,48.5604],[-88.8415,48.5604],[-88.8373,48.5589],[-88.8333,48.5607],[-88.828,48.5586],[-88.8246,48.5584],[-88.8225,48.56],[-88.8175,48.5612],[-88.8194,48.5636],[-88.8191,48.5647],[-88.8169,48.5666],[-88.813,48.5684],[-88.81,48.5689],[-88.809,48.5679],[-88.8048,48.5694],[-88.8018,48.569],[-88.8006,48.57],[-88.7916,48.572],[-88.7915,48.5737],[-88.7889,48.5742],[-88.7864,48.5738],[-88.7856,48.5721],[-88.7809,48.5737],[-88.7788,48.5736],[-88.7768,48.5755],[-88.7739,48.5746],[-88.772,48.5749],[-88.7656,48.5721],[-88.7623,48.5702],[-88.7583,48.5672],[-88.7594,48.5651],[-88.7427,48.5646],[-88.7414,48.5649],[-88.7342,48.5646],[-88.7248,48.5649],[-88.721,48.5648],[-88.7066,48.5649],[-88.6959,48.5649],[-88.6765,48.5651],[-88.6753,48.5649],[-88.6496,48.5653],[-88.6381,48.5651],[-88.6353,48.5661],[-88.6359,48.5674],[-88.6341,48.5686],[-88.6347,48.5713],[-88.6336,48.5725],[-88.6296,48.5741],[-88.6264,48.5771],[-88.6262,48.5786],[-88.6245,48.5798],[-88.6222,48.5848],[-88.6224,48.5879],[-88.6248,48.5913],[-88.6295,48.594],[-88.6297,48.5967],[-88.6309,48.5987],[-88.6298,48.6056],[-88.629,48.6074],[-88.6263,48.6106],[-88.6242,48.6124],[-88.6238,48.6141],[-88.6222,48.6148],[-88.618,48.6184],[-88.6158,48.6216],[-88.6139,48.6224],[-88.6117,48.6219],[-88.6045,48.622],[-88.601,48.6193],[-88.5983,48.6214],[-88.5967,48.6207],[-88.595,48.6226],[-88.5923,48.6221],[-88.5923,48.6202],[-88.5872,48.6184],[-88.5843,48.6201],[-88.5822,48.6222],[-88.5792,48.6214],[-88.5758,48.626],[-88.5729,48.627],[-88.5681,48.6254],[-88.5652,48.626],[-88.5633,48.6292],[-88.564,48.6307],[-88.5627,48.6317],[-88.5591,48.6322],[-88.5543,48.6317],[-88.5515,48.631],[-88.55,48.629],[-88.5485,48.6306],[-88.5463,48.6314],[-88.5463,48.6342],[-88.5444,48.6385],[-88.5418,48.642],[-88.5374,48.6441],[-88.5344,48.6446],[-88.5357,48.6458],[-88.5385,48.6457],[-88.544,48.6472],[-88.5481,48.6497],[-88.5511,48.6536],[-88.5509,48.6558],[-88.5528,48.6592],[-88.5521,48.662],[-88.5491,48.6634],[-88.5471,48.665],[-88.5443,48.6656],[-88.5415,48.6676],[-88.5439,48.6707],[-88.5442,48.6722],[-88.5474,48.6715],[-88.5491,48.6719],[-88.5532,48.6748],[-88.5548,48.6786],[-88.5545,48.6831],[-88.5525,48.6849],[-88.552,48.6865],[-88.5463,48.6918],[-88.5411,48.6951],[-88.5349,48.6977],[-88.5264,48.6998],[-88.5186,48.7],[-88.516,48.6994],[-88.5124,48.7001],[-88.5126,48.703],[-88.5149,48.7038],[-88.5172,48.7032],[-88.519,48.7045],[-88.5198,48.7067],[-88.5162,48.7099],[-88.5162,48.7135],[-88.5207,48.7159],[-88.5238,48.7185],[-88.5247,48.718],[-88.5278,48.7196],[-88.5306,48.719],[-88.535,48.7201],[-88.5386,48.7218],[-88.5394,48.7242],[-88.539,48.7261],[-88.5394,48.7283],[-88.541,48.7285],[-88.541,48.7324],[-88.5442,48.7324],[-88.5459,48.7331],[-88.5488,48.7356]]]},"properties":{"CMAUID":"595","CMAPUID":"35595","DGUID":"2021S0503595","DGUIDP":null,"CMANAME":"Thunder Bay","CMATYPE":"B","LANDAREA":2550.7877,"PRUID":"35"}},
{"type":"Feature","geometry":{"type":"Polygon","coordinates":[[[-75.1772,45.5777],[-75.1804,45.5783],[-75.1847,45.5798],[-75.192,45.583],[-75.1983,45.5854],[-75.2053,45.5869],[-75.2142,45.5873],[-75.2223,45.5875],[-75.2296,45.5874],[-75.2364,45.5869],[-75.2426,45.5855],[-75.2489,45.5828],[-75.256,45.5792],[-75.2756,45.5701],[-75.2971,45.5599],[-75.3003,45.5583],[-75.3046,45.553],[-75.3077,45.5509],[-75.317,45.5462],[-75.3297,45.5413],[-75.3425,45.537],[-75.3453,45.5368],[-75.374,45.5295],[-75.3834,45.5272],[-75.3887,45.5248],[-75.391,45.5242],[-75.3971,45.5234],[-75.4066,45.5234],[-75.4091,45.5242],[-75.4129,45.524],[-75.4153,45.5231],[-75.4167,45.5214],[-75.4207,45.5201],[-75.4236,45.5199],[-75.4394,45.5204],[-75.4454,45.5211],[-75.4569,45.5194],[-75.4613,45.5183],[-75.4688,45.5154],[-75.4779,45.5135],[-75.4912,45.5092],[-75.5117,45.5016],[-75.5204,45.4988],[-75.5275,45.496],[-75.5424,45.4896],[-75.5486,45.4864],[-75.5562,45.4845],[-75.5637,45.4807],[-75.5672,45.4781],[-75.5703,45.4767],[-75.5756,45.4748],[-75.5913,45.4728],[-75.5996,45.4725],[-75.619,45.4714],[-75.6273,45.4687],[-75.6394,45.4659],[-75.6518,45.4649],[-75.6649,45.4634],[-75.6776,45.4608],[-75.6832,45.4591],[-75.6889,45.4558],[-75.6924,45.453],[-75.6961,45.4495],[-75.6996,45.4443],[-75.7015,45.4406],[-75.7026,45.4376],[-75.7037,45.4324],[-75.7037,45.4266],[-75.7047,45.4247],[-75.7083,45.4233],[-75.7184,45.4213],[-75.7221,45.4218],[-75.7233,45.4201],[-75.7214,45.4189],[-75.7213,45.4177],[-75.7228,45.4165],[-75.7296,45.417],[-75.739,45.415],[-75.7419,45.4141],[-75.7474,45.4134],[-75.7511,45.4133],[-75.7564,45.4124],[-75.7596,45.4099],[-75.7663,45.4021],[-75.7725,45.3959],[-75.7789,45.3903],[-75.7916,45.3812],[-75.797,45.3783],[-75.8043,45.3761],[-75.8178,45.3727],[-75.8298,45.3732],[-75.8426,45.376],[-75.8749,45.3909],[-75.8793,45.3926],[-75.884,45.395],[-75.8952,45.4016],[-75.9043,45.4094],[-75.916,45.4174],[-75.9287,45.4288],[-75.9432,45.447],[-75.9547,45.4603],[-75.9663,45.4678],[-75.969,45.4699],[-75.9872,45.4796],[-75.9911,45.4808],[-76.0232,45.4891],[-76.0482,45.5001],[-76.0729,45.5077],[-76.0899,45.5139],[-76.1056,45.5162],[-76.1404,45.5182],[-76.154,45.5173],[-76.1662,45.5173],[-76.1924,45.5192],[-76.201,45.5189],[-76.2103,45.5167],[-76.2278,45.5118],[-76.2335,45.5078],[-76.2385,45.4753],[-76.2402,45.4712],[-76.2451,45.4686],[-76.2618,45.4681],[-76.2772,45.4665],[-76.2913,45.4659],[-76.2962,45.4645],[-76.317,45.457],[-76.3246,45.4567],[-76.3617,45.4571],[-76.366,45.4578],[-76.3764,45.4611],[-76.3862,45.4647],[-76.4092,45.4771],[-76.4195,45.4844],[-76.4335,45.4921],[-76.4536,45.5004],[-76.4671,45.5025],[-76.476,45.5037],[-76.4815,45.5048],[-76.4952,45.5143],[-76.4977,45.5163],[-76.5068,45.5103],[-76.5092,45.5085],[-76.5214,45.5003],[-76.542,45.4859],[-76.5774,45.461],[-76.591,45.4516],[-76.5981,45.4474],[-76.6127,45.4382],[-76.6293,45.4275],[-76.6428,45.419],[-76.6284,45.408],[-76.628,45.4074],[-76.6056,45.3901],[-76.5813,45.3708],[-76.5782,45.3681],[-76.5585,45.3524],[-76.5214,45.3227],[-76.5135,45.3165],[-76.5056,45.31],[-76.4979,45.3034],[-76.4757,45.2862],[-76.431,45.2521],[-76.4029,45.2297],[-76.3952,45.2238],[-76.3665,45.2014],[-76.3667,45.2012],[-76.3476,45.1861],[-76.3469,45.1855],[-76.3267,45.169],[-76.3247,45.1682],[-76.3186,45.1624],[-76.3147,45.1592],[-76.312,45.1579],[-76.2911,45.1413],[-76.2806,45.1326],[-76.2541,45.1119],[-76.2479,45.1076],[-76.2365,45.0992],[-76.2272,45.0921],[-76.2239,45.0942],[-76.2145,45.0854],[-76.2045,45.0763],[-76.1908,45.0635],[-76.1678,45.0443],[-76.1538,45.0335],[-76.1476,45.0282],[-76.1338,45.0157],[-76.1155,45.0001],[-76.0982,44.9854],[-76.0951,44.983],[-76.0687,44.9996],[-76.0652,45.0017],[-76.0464,45.0137],[-76.0347,45.0216],[-76.0167,45.0327],[-76.0162,45.0333],[-75.9948,45.0467],[-75.9788,45.0568],[-75.9531,45.0724],[-75.9397,45.0613],[-75.9262,45.0501],[-75.9156,45.0407],[-75.9,45.028],[-75.8968,45.0257],[-75.8901,45.0194],[-75.8764,45.0079],[-75.8608,44.9954],[-75.8455,44.983],[-75.8306,44.9712],[-75.8238,44.9655],[-75.8195,44.9622],[-75.8209,44.9668],[-75.8204,44.9677],[-75.818,44.9683],[-75.809,44.9592],[-75.7945,44.945],[-75.7806,44.9311],[-75.7624,44.9124],[-75.7365,44.8867],[-75.7249,44.8748],[-75.7145,44.864],[-75.7006,44.8497],[-75.6958,44.8456],[-75.6806,44.8549],[-75.6777,44.8567],[-75.6535,44.8715],[-75.6458,44.8765],[-75.6471,44.8781],[-75.6385,44.8824],[-75.6076,44.8991],[-75.6076,44.8993],[-75.5997,44.9034],[-75.5976,44.9048],[-75.5833,44.9133],[-75.5768,44.9169],[-75.5746,44.9176],[-75.5734,44.9187],[-75.5624,44.9245],[-75.5444,44.9333],[-75.5328,44.9394],[-75.5159,44.9458],[-75.5047,44.9501],[-75.4989,44.9522],[-75.4861,44.9564],[-75.4859,44.9568],[-75.496,44.9701],[-75.5067,44.9831],[-75.5167,44.9947],[-75.5216,45.0012],[-75.5348,45.0157],[-75.5394,45.021],[-75.547,45.0288],[-75.5616,45.0448],[-75.5708,45.056],[-75.5944,45.0838],[-75.5947,45.0846],[-75.5896,45.0869],[-75.5597,45.1002],[-75.5378,45.1094],[-75.5121,45.1198],[-75.4959,45.1268],[-75.4773,45.1327],[-75.4666,45.1364],[-75.452,45.1415],[-75.4353,45.1476],[-75.4283,45.1503],[-75.4265,45.1513],[-75.4034,45.1611],[-75.3772,45.1722],[-75.354,45.1818],[-75.3108,45.1985],[-75.3084,45.1988],[-75.3078,45.1997],[-75.2974,45.2037],[-75.262,45.2171],[-75.2203,45.2327],[-75.2015,45.2398],[-75.2021,45.2417],[-75.2066,45.2514],[-75.2183,45.2724],[-75.2265,45.2867],[-75.2341,45.3003],[-75.2488,45.3249],[-75.2567,45.3378],[-75.2675,45.3551],[-75.2683,45.3569],[-75.2665,45.3587],[-75.2504,45.3633],[-75.2259,45.3706],[-75.2016,45.3776],[-75.1697,45.3864],[-75.1549,45.3905],[-75.1049,45.4037],[-75.1012,45.405],[-75.097,45.4057],[-75.0903,45.4077],[-75.0795,45.4106],[-75.0842,45.4204],[-75.1012,45.4552],[-75.1065,45.4665],[-75.1275,45.5094],[-75.1324,45.519],[-75.1532,45.5588],[-75.1601,45.5711],[-75.1633,45.5778],[-75.1712,45.5769],[-75.1772,45.5777]]]},"properties":{"CMAUID":"505","CMAPUID":"35505","DGUID":"2021S0503505","DGUIDP":"2021S050535505","CMANAME":"Ottawa - Gatineau (Ontario part / partie de l'Ontario)","CMATYPE":"B","LANDAREA":4665.1591,"PRUID":"35"}},
{"type":"Feature","geometry":{"type":"Polygon","coordinates":[[[-76.5324,44.7186],[-76.5446,44.7407],[-76.575,44.732],[-76.5984,44.7253],[-76.6053,44.7227],[-76.6128,44.721],[-76.6405,44.7127],[-76.6546,44.709],[-76.6699,44.7053],[-76.6774,44.7032],[-76.6756,44.6966],[-76.6756,44.6945],[-76.6735,44.6854],[-76.6726,44.683],[-76.671,44.6761],[-76.6669,44.6563],[-76.6495,44.5857],[-76.6482,44.5837],[-76.6469,44.5785],[-76.6443,44.5663],[-76.6385,44.5424],[-76.638,44.5374],[-76.636,44.5302],[-76.652,44.529],[-76.6662,44.527],[-76.6767,44.5259],[-76.6865,44.5249],[-76.6893,44.5249],[-76.701,44.5237],[-76.718,44.5221],[-76.7272,44.5213],[-76.7392,44.5206],[-76.7467,44.521],[-76.7543,44.5211],[-76.7675,44.5208],[-76.7867,44.5213],[-76.8124,44.5222],[-76.8147,44.5224],[-76.8369,44.5232],[-76.8407,44.5236],[-76.8363,44.5187],[-76.8254,44.5073],[-76.8179,44.4967],[-76.8124,44.4895],[-76.8105,44.4865],[-76.7896,44.4569],[-76.7755,44.4373],[-76.7532,44.4069],[-76.7473,44.3984],[-76.7391,44.3872],[-76.7346,44.3818],[-76.7287,44.3741],[-76.7412,44.368],[-76.751,44.3634],[-76.7621,44.3579],[-76.8014,44.3387],[-76.8628,44.3088],[-76.8873,44.297],[-76.9045,44.2888],[-76.9,44.2833],[-76.8927,44.2733],[-76.8875,44.2667],[-76.8747,44.2501],[-76.8683,44.2414],[-76.8652,44.2369],[-76.8541,44.2196],[-76.842,44.2002],[-76.8333,44.1887],[-76.8289,44.1814],[-76.8193,44.1665],[-76.8166,44.1619],[-76.8072,44.1485],[-76.8371,44.1327],[-76.8082,44.0883],[-76.7813,44.0468],[-76.7581,44.0111],[-76.6349,44.0323],[-76.588,44.0421],[-76.5247,44.0552],[-76.5002,44.0152],[-76.5,44.0152],[-76.4545,44.0739],[-76.4387,44.0941],[-76.3527,44.1344],[-76.3126,44.1991],[-76.2864,44.2039],[-76.2454,44.2039],[-76.223,44.2102],[-76.2068,44.215],[-76.1916,44.2216],[-76.1643,44.2399],[-76.1618,44.2807],[-76.1999,44.294],[-76.1946,44.3004],[-76.1944,44.3021],[-76.1984,44.3047],[-76.2058,44.3073],[-76.2143,44.3083],[-76.2335,44.3052],[-76.2342,44.315],[-76.2348,44.3196],[-76.2353,44.3257],[-76.235,44.3278],[-76.2361,44.3513],[-76.2363,44.3559],[-76.2374,44.3582],[-76.237,44.3595],[-76.2396,44.3727],[-76.2412,44.3854],[-76.2422,44.3967],[-76.2437,44.4089],[-76.2434,44.4107],[-76.2443,44.4155],[-76.2459,44.4292],[-76.2481,44.4469],[-76.2479,44.4474],[-76.2484,44.4559],[-76.2501,44.4644],[-76.2504,44.4686],[-76.2517,44.4781],[-76.2532,44.4864],[-76.2549,44.498],[-76.2627,44.4906],[-76.2778,44.5014],[-76.2905,44.5119],[-76.3083,44.5268],[-76.321,44.5371],[-76.3226,44.5386],[-76.3295,44.5443],[-76.331,44.5449],[-76.3321,44.5465],[-76.3424,44.5552],[-76.3528,44.5637],[-76.3638,44.5729],[-76.3737,44.5819],[-76.3816,44.5887],[-76.4096,44.6144],[-76.4198,44.6234],[-76.4527,44.6544],[-76.4544,44.6562],[-76.4715,44.6717],[-76.4759,44.676],[-76.4963,44.6942],[-76.5003,44.6984],[-76.5211,44.7169],[-76.5257,44.7212],[-76.5318,44.7175],[-76.5324,44.7186]]]},"properties":{"CMAUID":"521","CMAPUID":"35521","DGUID":"2021S0503521","DGUIDP":null,"CMANAME":"Kingston","CMATYPE":"B","LANDAREA":1919.1686,"PRUID":"35"}},
{"type":"Feature","geometry":{"type":"Polygon","coordinates":[[[-78.5087,44.0813],[-78.4994,44.0851],[-78.486,44.0881],[-78.4675,44.0916],[-78.4468,44.0954],[-78.4218,44.1012],[-78.4046,44.1054],[-78.3807,44.1115],[-78.3465,44.12],[-78.3442,44.12],[-78.3081,44.1292],[-78.3041,44.1272],[-78.2977,44.1255],[-78.2926,44.1249],[-78.2818,44.125],[-78.276,44.1254],[-78.271,44.1265],[-78.2643,44.129],[-78.2537,44.1338],[-78.2266,44.1499],[-78.2203,44.1427],[-78.1647,44.1808],[-78.1547,44.188],[-78.1452,44.1939],[-78.1366,44.202],[-78.1254,44.2128],[-78.1204,44.2174],[-78.1145,44.2241],[-78.1023,44.2337],[-78.0914,44.2435],[-78.0818,44.2545],[-78.0744,44.2569],[-78.0615,44.2599],[-78.0648,44.2669],[-78.0889,44.314],[-78.09,44.316],[-78.0994,44.334],[-78.1047,44.3447],[-78.1153,44.365],[-78.1109,44.3681],[-78.0996,44.371],[-78.0732,44.3776],[-78.0564,44.3819],[-78.0454,44.3846],[-78.0273,44.3892],[-78.0062,44.3946],[-77.9775,44.4018],[-77.9541,44.4077],[-77.9316,44.4136],[-77.9304,44.4138],[-77.9262,44.4165],[-77.9278,44.42],[-77.9383,44.4416],[-77.9434,44.4517],[-77.9565,44.48],[-77.9729,44.5125],[-77.9867,44.5395],[-77.9869,44.5394],[-77.995,44.5556],[-77.9976,44.5613],[-77.9999,44.5652],[-78.001,44.5694],[-78.0047,44.5818],[-78.0174,44.5784],[-78.0187,44.5763],[-78.0205,44.5768],[-78.0214,44.5801],[-78.0228,44.5821],[-78.0264,44.5832],[-78.0333,44.5822],[-78.0363,44.5812],[-78.039,44.5796],[-78.0462,44.5791],[-78.0702,44.5719],[-78.0767,44.5699],[-78.0792,44.5695],[-78.0819,44.5706],[-78.0854,44.5704],[-78.088,44.5716],[-78.0896,44.5713],[-78.0937,44.5683],[-78.0991,44.5669],[-78.1051,44.565],[-78.1079,44.5638],[-78.1128,44.5604],[-78.1188,44.5575],[-78.1273,44.5544],[-78.137,44.5537],[-78.1477,44.552],[-78.1537,44.5486],[-78.1577,44.5471],[-78.1592,44.544],[-78.161,44.5464],[-78.1596,44.5493],[-78.1618,44.5505],[-78.1647,44.5529],[-78.1719,44.554],[-78.1762,44.556],[-78.178,44.5557],[-78.181,44.5528],[-78.1837,44.5523],[-78.188,44.553],[-78.1958,44.5555],[-78.1989,44.5575],[-78.2037,44.5567],[-78.2097,44.5576],[-78.2127,44.5567],[-78.2182,44.5573],[-78.2198,44.5569],[-78.2203,44.5556],[-78.2231,44.5548],[-78.2269,44.5546],[-78.233,44.5558],[-78.2357,44.5559],[-78.2402,44.5537],[-78.2407,44.5515],[-78.2442,44.5483],[-78.2495,44.5469],[-78.255,44.547],[-78.2684,44.5483],[-78.2714,44.5492],[-78.2794,44.5555],[-78.2974,44.5574],[-78.3,44.5574],[-78.305,44.5585],[-78.3094,44.5589],[-78.3264,44.5581],[-78.3368,44.557],[-78.3453,44.5565],[-78.348,44.5539],[-78.3482,44.5436],[-78.3502,44.5375],[-78.3526,44.5329],[-78.3595,44.5305],[-78.3646,44.5279],[-78.3667,44.5254],[-78.3672,44.523],[-78.366,44.5181],[-78.3698,44.5097],[-78.3738,44.5002],[-78.3787,44.489],[-78.3787,44.4878],[-78.3804,44.4832],[-78.3819,44.4806],[-78.382,44.4782],[-78.3808,44.4767],[-78.377,44.4736],[-78.3767,44.4718],[-78.3779,44.4696],[-78.3832,44.4637],[-78.3837,44.4609],[-78.3887,44.4601],[-78.3906,44.4581],[-78.3931,44.4574],[-78.398,44.4578],[-78.4003,44.4571],[-78.4044,44.4547],[-78.4089,44.4537],[-78.4107,44.4541],[-78.4106,44.4557],[-78.4117,44.4575],[-78.4221,44.4639],[-78.4261,44.4656],[-78.4459,44.4697],[-78.4593,44.4769],[-78.4616,44.4772],[-78.4768,44.4738],[-78.4884,44.4675],[-78.4879,44.4659],[-78.4885,44.4621],[-78.4916,44.453],[-78.4923,44.4456],[-78.4904,44.4351],[-78.4899,44.431],[-78.4863,44.4218],[-78.4794,44.4072],[-78.4735,44.3936],[-78.4709,44.388],[-78.466,44.3782],[-78.4591,44.3636],[-78.4506,44.3458],[-78.4486,44.3411],[-78.4466,44.3372],[-78.4427,44.328],[-78.438,44.3173],[-78.4333,44.3076],[-78.4293,44.2984],[-78.4255,44.2904],[-78.4418,44.2862],[-78.4522,44.2837],[-78.4764,44.2781],[-78.5135,44.2692],[-78.5556,44.2595],[-78.5786,44.254],[-78.5826,44.253],[-78.5842,44.2513],[-78.5803,44.2431],[-78.568,44.2159],[-78.5627,44.204],[-78.5521,44.1795],[-78.5477,44.1685],[-78.545,44.1658],[-78.546,44.1645],[-78.5424,44.1563],[-78.5328,44.1353],[-78.5218,44.1112],[-78.5163,44.0988],[-78.5087,44.0813]]]},"properties":{"CMAUID":"529","CMAPUID":"35529","DGUID":"2021S0503529","DGUIDP":null,"CMANAME":"Peterborough","CMATYPE":"B","LANDAREA":1508.4421,"PRUID":"35"}},
{"type":"Feature","geometry":{"type":"Polygon","coordinates":[[[-78.5163,44.0988],[-78.5261,44.0967],[-78.5424,44.0927],[-78.5596,44.0889],[-78.5922,44.0813],[-78.6023,44.0791],[-78.6057,44.0792],[-78.6079,44.0786],[-78.6103,44.0772],[-78.6251,44.0737],[-78.6313,44.0725],[-78.6645,44.065],[-78.6927,44.0584],[-78.7,44.0739],[-78.7032,44.0804],[-78.7189,44.0767],[-78.7431,44.0712],[-78.7524,44.0689],[-78.7761,44.0633],[-78.8021,44.0573],[-78.8483,44.0461],[-78.8565,44.0442],[-78.8717,44.0405],[-78.8721,44.0407],[-78.8751,44.0474],[-78.921,44.0372],[-78.9431,44.0322],[-78.9627,44.028],[-78.9945,44.021],[-79.0033,44.019],[-79.0248,44.0143],[-79.0473,44.0092],[-79.0404,43.9931],[-79.0327,43.9755],[-79.0241,43.9564],[-79.0151,43.936],[-79.008,43.9213],[-79.0065,43.918],[-79.0013,43.905],[-78.9943,43.8891],[-78.9923,43.884],[-78.9863,43.8701],[-78.9709,43.8339],[-78.9705,43.8335],[-78.9643,43.8396],[-78.9616,43.8417],[-78.9557,43.8445],[-78.9514,43.8456],[-78.9456,43.8462],[-78.9436,43.8459],[-78.9414,43.8467],[-78.9387,43.8495],[-78.9353,43.8511],[-78.9291,43.8515],[-78.9216,43.8502],[-78.9102,43.8468],[-78.903,43.8459],[-78.9006,43.8464],[-78.9001,43.8484],[-78.8946,43.852],[-78.8909,43.8532],[-78.8876,43.8534],[-78.8821,43.8524],[-78.8737,43.8337],[-78.8687,43.8351],[-78.8356,43.8352],[-78.7823,43.8358],[-78.7962,43.867],[-78.7915,43.8678],[-78.7881,43.8692],[-78.7849,43.8697],[-78.7794,43.8691],[-78.7763,43.8684],[-78.7727,43.8682],[-78.7667,43.8685],[-78.7595,43.8685],[-78.7556,43.868],[-78.7499,43.8682],[-78.7432,43.8695],[-78.7385,43.87],[-78.7318,43.8694],[-78.7313,43.8682],[-78.7256,43.8669],[-78.7146,43.8672],[-78.7117,43.8677],[-78.7085,43.8694],[-78.7024,43.8719],[-78.6995,43.8741],[-78.694,43.8762],[-78.6905,43.8767],[-78.685,43.8728],[-78.6833,43.8734],[-78.6843,43.8785],[-78.6811,43.88],[-78.679,43.8828],[-78.676,43.8851],[-78.6722,43.8869],[-78.6688,43.8877],[-78.6646,43.8877],[-78.6634,43.8888],[-78.6579,43.891],[-78.6526,43.8923],[-78.6398,43.8925],[-78.6362,43.8929],[-78.6327,43.8952],[-78.626,43.8966],[-78.6232,43.8968],[-78.6176,43.8985],[-78.612,43.8989],[-78.6074,43.8984],[-78.6025,43.8965],[-78.5977,43.8958],[-78.5922,43.8962],[-78.5864,43.8953],[-78.5827,43.8952],[-78.5768,43.8957],[-78.5739,43.8974],[-78.5699,43.897],[-78.5637,43.8952],[-78.5588,43.8954],[-78.556,43.8962],[-78.5445,43.8962],[-78.5414,43.8959],[-78.5358,43.8973],[-78.5196,43.8993],[-78.5143,43.8994],[-78.5085,43.8998],[-78.5029,43.9006],[-78.4971,43.9],[-78.491,43.8984],[-78.4873,43.8971],[-78.482,43.8966],[-78.4728,43.8989],[-78.4698,43.8994],[-78.4663,43.9004],[-78.4638,43.9018],[-78.4546,43.905],[-78.45,43.9079],[-78.4461,43.9097],[-78.437,43.9119],[-78.442,43.9235],[-78.4528,43.9474],[-78.4639,43.9734],[-78.4734,43.995],[-78.4752,43.9994],[-78.4825,44.0156],[-78.4846,44.0206],[-78.4905,44.0378],[-78.492,44.0419],[-78.4981,44.0567],[-78.5043,44.0713],[-78.5087,44.0813],[-78.5163,44.0988]]]},"properties":{"CMAUID":"532","CMAPUID":"35532","DGUID":"2021S0503532","DGUIDP":null,"CMANAME":"Oshawa","CMATYPE":"B","LANDAREA":903.2512,"PRUID":"35"}},
{"type":"Feature","geometry":{"type":"Polygon","coordinates":[[[-79.0473,44.0092],[-79.0575,44.0324],[-79.0587,44.0362],[-79.0615,44.042],[-79.0636,44.0468],[-79.0719,44.067],[-79.083,44.0924],[-79.0852,44.0972],[-79.0924,44.1136],[-79.0941,44.1168],[-79.0941,44.1181],[-79.0956,44.1206],[-79.0995,44.1289],[-79.101,44.1336],[-79.1074,44.1482],[-79.1102,44.1551],[-79.1223,44.1827],[-79.134,44.2107],[-79.138,44.2206],[-79.1393,44.2236],[-79.152,44.2535],[-79.1642,44.2817],[-79.1721,44.2992],[-79.1816,44.321],[-79.1945,44.3498],[-79.2001,44.362],[-79.2028,44.3683],[-79.2243,44.4167],[-79.2309,44.4316],[-79.2334,44.4385],[-79.238,44.4484],[-79.2411,44.4495],[-79.2441,44.4483],[-79.2501,44.4503],[-79.2519,44.452],[-79.2491,44.4552],[-79.246,44.4569],[-79.2426,44.458],[-79.2424,44.4598],[-79.297,44.4525],[-79.3741,44.4417],[-79.4095,44.4368],[-79.4615,44.4294],[-79.5002,44.4239],[-79.509,44.4224],[-79.5058,44.4099],[-79.5054,44.3973],[-79.5097,44.3874],[-79.5098,44.3067],[-79.5108,44.3013],[-79.5117,44.2942],[-79.5118,44.289],[-79.511,44.2696],[-79.5127,44.25],[-79.5121,44.2439],[-79.5114,44.2132],[-79.5127,44.2101],[-79.547,44.2024],[-79.5586,44.1997],[-79.5595,44.1997],[-79.5842,44.194],[-79.6214,44.1859],[-79.6964,44.1693],[-79.7179,44.1647],[-79.7214,44.177],[-79.7207,44.177],[-79.7232,44.1852],[-79.7552,44.1783],[-79.7961,44.1696],[-79.8153,44.1653],[-79.8293,44.1624],[-79.8309,44.1689],[-79.8392,44.1672],[-79.8421,44.1774],[-79.8587,44.1743],[-79.859,44.1751],[-79.8765,44.1716],[-79.8762,44.1705],[-79.8832,44.1693],[-79.8827,44.1671],[-79.8918,44.1653],[-79.8899,44.1573],[-79.8924,44.157],[-79.8842,44.1531],[-79.8874,44.1519],[-79.8862,44.1473],[-79.8888,44.1467],[-79.8878,44.1428],[-79.8895,44.1423],[-79.8878,44.1366],[-79.8755,44.1393],[-79.8651,44.0999],[-79.86,44.0793],[-79.8559,44.0632],[-79.8524,44.0505],[-79.8432,44.0153],[-79.8404,44.0038],[-79.8336,43.977],[-79.8428,43.975],[-79.8701,43.9691],[-79.8746,43.9679],[-79.8792,43.9671],[-79.8997,43.9627],[-79.9358,43.9548],[-79.9512,43.9514],[-79.9648,44.0049],[-79.9712,44.0306],[-79.973,44.0385],[-79.9781,44.0594],[-79.9834,44.0804],[-79.9848,44.0858],[-79.9871,44.0959],[-79.9876,44.0975],[-79.994,44.1232],[-80.0092,44.1196],[-80.0371,44.1133],[-80.058,44.1085],[-80.074,44.1047],[-80.079,44.1037],[-80.1069,44.0973],[-80.1228,44.0937],[-80.1308,44.0928],[-80.1658,44.0855],[-80.1717,44.0849],[-80.163,44.0472],[-80.1611,44.0386],[-80.1595,44.0326],[-80.1566,44.0201],[-80.1501,43.993],[-80.1482,43.985],[-80.1392,43.9469],[-80.1347,43.9288],[-80.1306,43.912],[-80.146,43.9087],[-80.1446,43.908],[-80.1174,43.8893],[-80.1365,43.8717],[-80.1439,43.8651],[-80.144,43.8646],[-80.1337,43.857],[-80.0803,43.8175],[-80.0603,43.8028],[-80.0136,43.7679],[-79.9957,43.7544],[-79.969,43.7345],[-80.0191,43.6894],[-80.0212,43.6875],[-80.0442,43.6669],[-80.0616,43.6511],[-80.0858,43.6291],[-80.0872,43.6274],[-80.0962,43.6192],[-80.1169,43.601],[-80.1238,43.5947],[-80.1344,43.5854],[-80.1286,43.5816],[-80.145,43.567],[-80.1501,43.5706],[-80.1604,43.5611],[-80.1479,43.5521],[-80.1318,43.5408],[-80.125,43.5358],[-80.0797,43.5036],[-80.0687,43.4955],[-80.0398,43.475],[-80.0343,43.4711],[-80.0127,43.4555],[-80.0029,43.4485],[-79.9748,43.4282],[-79.9593,43.4173],[-79.9477,43.4274],[-79.9461,43.4282],[-79.9427,43.4326],[-79.9321,43.4421],[-79.9213,43.4519],[-79.9191,43.4543],[-79.9112,43.4615],[-79.9053,43.4672],[-79.8947,43.4765],[-79.8721,43.4607],[-79.8511,43.4463],[-79.8425,43.4405],[-79.8408,43.4409],[-79.8292,43.4326],[-79.8194,43.4269],[-79.811,43.4348],[-79.7859,43.4165],[-79.7786,43.4114],[-79.7548,43.3942],[-79.7414,43.3842],[-79.7248,43.372],[-79.7204,43.3689],[-79.7099,43.3777],[-79.6969,43.388],[-79.6832,43.3988],[-79.6758,43.4058],[-79.6678,43.4159],[-79.6606,43.4263],[-79.6535,43.437],[-79.6452,43.4488],[-79.6335,43.4639],[-79.6162,43.4749],[-79.5771,43.5109],[-79.5565,43.5299],[-79.553,43.5329],[-79.5412,43.5437],[-79.54,43.5451],[-79.523,43.5603],[-79.5193,43.5633],[-79.5081,43.5753],[-79.4935,43.5928],[-79.4769,43.6084],[-79.467,43.6202],[-79.4638,43.6237],[-79.4697,43.6315],[-79.4673,43.6332],[-79.4581,43.6353],[-79.4552,43.6355],[-79.4468,43.6342],[-79.4257,43.6255],[-79.4249,43.6248],[-79.4165,43.6262],[-79.4061,43.6276],[-79.4053,43.6253],[-79.401,43.626],[-79.3946,43.6193],[-79.3931,43.6122],[-79.3896,43.6104],[-79.3837,43.6104],[-79.3762,43.6133],[-79.3709,43.6144],[-79.368,43.617],[-79.356,43.6254],[-79.3442,43.6124],[-79.3437,43.6108],[-79.3393,43.6129],[-79.3303,43.6218],[-79.3265,43.6262],[-79.3166,43.6261],[-79.3185,43.6468],[-79.3135,43.6486],[-79.3008,43.6574],[-79.2975,43.6639],[-79.2922,43.6667],[-79.2845,43.6692],[-79.2792,43.6696],[-79.2683,43.6808],[-79.261,43.688],[-79.2513,43.6922],[-79.2326,43.6998],[-79.2216,43.7102],[-79.2185,43.721],[-79.2138,43.726],[-79.196,43.7397],[-79.1894,43.7446],[-79.1729,43.7536],[-79.1704,43.7546],[-79.1564,43.7585],[-79.1524,43.7586],[-79.1503,43.76],[-79.1456,43.7656],[-79.1441,43.7662],[-79.1341,43.7745],[-79.1279,43.7801],[-79.1135,43.7938],[-79.1021,43.8033],[-79.092,43.8095],[-79.0838,43.8097],[-79.077,43.8078],[-79.0728,43.8059],[-79.0604,43.8057],[-79.0451,43.8139],[-79.0384,43.8152],[-79.0333,43.8166],[-79.0281,43.8164],[-79.025,43.8158],[-79.0165,43.8192],[-79.0146,43.8197],[-79.0111,43.8196],[-79.0078,43.8217],[-78.9983,43.8262],[-78.9948,43.8272],[-78.9872,43.8273],[-78.9835,43.8271],[-78.9806,43.8279],[-78.9772,43.8294],[-78.9722,43.8321],[-78.9705,43.8335],[-78.9709,43.8339],[-78.9863,43.8701],[-78.9923,43.884],[-78.9943,43.8891],[-79.0013,43.905],[-79.0065,43.918],[-79.008,43.9213],[-79.0151,43.936],[-79.0241,43.9564],[-79.0327,43.9755],[-79.0404,43.9931],[-79.0473,44.0092]]]},"properties":{"CMAUID":"535","CMAPUID":"35535","DGUID":"2021S0503535","DGUIDP":null,"CMANAME":"Toronto","CMATYPE":"B","LANDAREA":5902.7499,"PRUID":"35"}},
{"type":"Feature","geometry":{"type":"Polygon","coordinates":[[[-80.0343,43.4711],[-80.0424,43.4648],[-80.0441,43.4637],[-80.0586,43.453],[-80.0836,43.4353],[-80.0838,43.4349],[-80.0812,43.4264],[-80.0786,43.4181],[-80.0799,43.4179],[-80.1068,43.4136],[-80.1527,43.4059],[-80.1802,43.4014],[-80.2047,43.3975],[-80.2029,43.3913],[-80.1963,43.3706],[-80.1952,43.3651],[-80.1905,43.3527],[-80.1876,43.3432],[-80.2134,43.3393],[-80.2485,43.3336],[-80.2384,43.3065],[-80.2378,43.3045],[-80.2333,43.2935],[-80.2269,43.277],[-80.2249,43.2713],[-80.2221,43.2646],[-80.2121,43.2387],[-80.2099,43.2338],[-80.2007,43.2109],[-80.1987,43.21],[-80.177,43.2017],[-80.1619,43.1961],[-80.1567,43.1945],[-80.1465,43.1906],[-80.1413,43.1891],[-80.1119,43.1784],[-80.0794,43.1665],[-80.0563,43.1579],[-80.0549,43.1577],[-80.0482,43.1551],[-80.0323,43.1493],[-80.0156,43.1433],[-79.9843,43.132],[-79.9654,43.1253],[-79.9643,43.1248],[-79.9327,43.1137],[-79.9007,43.1022],[-79.8881,43.0978],[-79.8506,43.0845],[-79.8321,43.0778],[-79.8036,43.0678],[-79.7906,43.0632],[-79.7719,43.0566],[-79.7675,43.0552],[-79.7541,43.0505],[-79.7514,43.0563],[-79.7417,43.08],[-79.7239,43.1224],[-79.7098,43.1558],[-79.6917,43.1518],[-79.6782,43.1484],[-79.6682,43.1464],[-79.6586,43.144],[-79.6576,43.1455],[-79.6498,43.163],[-79.6495,43.1631],[-79.635,43.1599],[-79.5571,43.1428],[-79.5283,43.1364],[-79.5121,43.1326],[-79.512,43.135],[-79.5122,43.1427],[-79.5122,43.152],[-79.5128,43.162],[-79.5125,43.1661],[-79.5129,43.1673],[-79.5127,43.1704],[-79.5127,43.183],[-79.5131,43.1873],[-79.5124,43.1894],[-79.5129,43.1909],[-79.5133,43.1985],[-79.5133,43.2003],[-79.523,43.2003],[-79.5514,43.2098],[-79.5793,43.2102],[-79.6188,43.2334],[-79.622,43.2263],[-79.6232,43.226],[-79.6284,43.2286],[-79.6296,43.2285],[-79.6412,43.2253],[-79.6451,43.2246],[-79.6505,43.2231],[-79.654,43.2229],[-79.6609,43.2242],[-79.6655,43.2258],[-79.6693,43.2278],[-79.6737,43.2307],[-79.6743,43.2306],[-79.6791,43.2329],[-79.6822,43.234],[-79.6858,43.2338],[-79.6904,43.2349],[-79.6925,43.2357],[-79.6974,43.2355],[-79.7029,43.2358],[-79.7053,43.2354],[-79.7111,43.2368],[-79.719,43.2399],[-79.7232,43.2425],[-79.7314,43.2453],[-79.7341,43.2457],[-79.7404,43.2501],[-79.7666,43.2683],[-79.7767,43.2753],[-79.7802,43.2804],[-79.7931,43.3013],[-79.7969,43.3179],[-79.7916,43.321],[-79.7845,43.3258],[-79.7748,43.331],[-79.77,43.3338],[-79.7564,43.3433],[-79.7514,43.3473],[-79.7469,43.3503],[-79.7391,43.3561],[-79.7316,43.3601],[-79.7288,43.3619],[-79.7204,43.3689],[-79.7248,43.372],[-79.7414,43.3842],[-79.7548,43.3942],[-79.7786,43.4114],[-79.7859,43.4165],[-79.811,43.4348],[-79.8194,43.4269],[-79.8292,43.4326],[-79.8408,43.4409],[-79.8425,43.4405],[-79.8511,43.4463],[-79.8721,43.4607],[-79.8947,43.4765],[-79.9053,43.4672],[-79.9112,43.4615],[-79.9191,43.4543],[-79.9213,43.4519],[-79.9321,43.4421],[-79.9427,43.4326],[-79.9461,43.4282],[-79.9477,43.4274],[-79.9593,43.4173],[-79.9748,43.4282],[-80.0029,43.4485],[-80.0127,43.4555],[-80.0343,43.4711]]]},"properties":{"CMAUID":"537","CMAPUID":"35537","DGUID":"2021S0503537","DGUIDP":null,"CMANAME":"Hamilton","CMATYPE":"B","LANDAREA":1373.146,"PRUID":"35"}},
{"type":"Feature","geometry":{"type":"Polygon","coordinates":[[[-79.5121,43.1326],[-79.5122,43.127],[-79.5116,43.1223],[-79.5114,43.1144],[-79.5119,43.1135],[-79.5112,43.1085],[-79.5103,43.0927],[-79.4823,43.0931],[-79.4307,43.0949],[-79.4097,43.0955],[-79.3894,43.0958],[-79.3881,43.0516],[-79.3875,43.0238],[-79.3864,42.991],[-79.3859,42.9896],[-79.3862,42.9861],[-79.391,42.9848],[-79.3927,42.9849],[-79.394,42.9866],[-79.3941,42.9886],[-79.3965,42.9913],[-79.3984,42.9913],[-79.4034,42.9883],[-79.4052,42.988],[-79.4076,42.9895],[-79.4085,42.9924],[-79.4142,42.9935],[-79.4149,42.9954],[-79.4138,43.0012],[-79.4151,43.0029],[-79.4167,43.0031],[-79.419,43.0016],[-79.4207,42.9991],[-79.4245,42.9982],[-79.4291,42.9981],[-79.4298,42.9998],[-79.4291,43.0031],[-79.4306,43.0053],[-79.4338,43.0074],[-79.4352,43.006],[-79.4359,43.004],[-79.4381,43.0025],[-79.4422,43.0007],[-79.445,43.0015],[-79.4462,43.0038],[-79.4483,43.0061],[-79.4502,43.0096],[-79.4532,43.0114],[-79.456,43.0108],[-79.4565,43.0089],[-79.4553,43.0074],[-79.4563,43.0057],[-79.4603,43.0037],[-79.4648,42.9992],[-79.47,42.9995],[-79.4718,42.999],[-79.4733,42.9995],[-79.4748,43.0025],[-79.4811,43.0047],[-79.4825,43.0039],[-79.481,43.0012],[-79.4819,43.0001],[-79.4856,42.9995],[-79.488,42.998],[-79.4917,43.0006],[-79.4966,43.0013],[-79.4985,43.0013],[-79.4996,42.9997],[-79.4991,42.9971],[-79.5004,42.9947],[-79.5032,42.9947],[-79.5067,42.9939],[-79.5092,42.996],[-79.5118,42.9966],[-79.5131,43.0001],[-79.5158,43],[-79.5184,42.9981],[-79.5215,42.9946],[-79.525,42.9945],[-79.5268,42.993],[-79.5254,42.9886],[-79.5274,42.9864],[-79.5292,42.9867],[-79.5298,42.9884],[-79.5319,42.9893],[-79.5374,42.9876],[-79.5382,42.9869],[-79.5376,42.9847],[-79.5406,42.9839],[-79.544,42.9848],[-79.5474,42.9852],[-79.5491,42.9874],[-79.5543,42.9859],[-79.5595,42.9884],[-79.5625,42.9885],[-79.5635,42.9897],[-79.5646,42.9927],[-79.5662,42.9945],[-79.566,42.9961],[-79.5693,42.9991],[-79.5717,42.9989],[-79.5709,42.997],[-79.5722,42.9937],[-79.575,42.9925],[-79.5772,42.9934],[-79.579,42.9924],[-79.5811,42.9931],[-79.5823,42.9967],[-79.5816,42.9976],[-79.5815,43.0008],[-79.5838,43.0016],[-79.5838,42.9899],[-79.5632,42.9826],[-79.5617,42.9817],[-79.5493,42.9778],[-79.5221,42.9683],[-79.5118,42.9649],[-79.5113,42.9645],[-79.5006,42.9516],[-79.4881,42.9363],[-79.4806,42.9269],[-79.4734,42.9183],[-79.4578,42.8993],[-79.4487,42.8886],[-79.4377,42.8764],[-79.4376,42.8758],[-79.4276,42.8642],[-79.4141,42.8486],[-79.4033,42.8358],[-79.3834,42.8121],[-79.3663,42.7925],[-79.3315,42.7522],[-79.283,42.7507],[-79.2786,42.7527],[-79.2616,42.7541],[-79.2346,42.7543],[-79.1852,42.7521],[-79.1717,42.7535],[-79.1669,42.7529],[-79.1416,42.7513],[-79.1178,42.7604],[-79.0889,42.7712],[-79.0807,42.7741],[-79.0533,42.7844],[-79.0436,42.7881],[-79.0064,42.802],[-78.9694,42.8155],[-78.9354,42.8284],[-78.9255,42.8541],[-78.9189,42.8736],[-78.9061,42.9002],[-78.9059,42.9238],[-78.9079,42.9298],[-78.909,42.9304],[-78.9099,42.9336],[-78.9196,42.9472],[-78.933,42.9562],[-78.962,42.9579],[-78.9751,42.9688],[-79.012,42.9853],[-79.0128,42.9864],[-79.0203,42.9948],[-79.0234,43.0163],[-79.0119,43.0292],[-79.0053,43.0473],[-78.9997,43.056],[-79.0074,43.0659],[-79.0347,43.0708],[-79.0577,43.0748],[-79.068,43.0769],[-79.0767,43.0804],[-79.0716,43.0867],[-79.0678,43.0903],[-79.0638,43.0955],[-79.0595,43.1046],[-79.0582,43.1068],[-79.0583,43.1093],[-79.0601,43.1137],[-79.0625,43.1158],[-79.0704,43.1209],[-79.0673,43.1217],[-79.061,43.1258],[-79.0555,43.1282],[-79.0518,43.1324],[-79.0431,43.1392],[-79.0425,43.1435],[-79.0427,43.1483],[-79.0432,43.1503],[-79.0445,43.1522],[-79.0448,43.1551],[-79.0462,43.1579],[-79.0474,43.1632],[-79.0529,43.1697],[-79.0537,43.1713],[-79.0537,43.1749],[-79.0531,43.1783],[-79.0531,43.1831],[-79.0526,43.1871],[-79.0491,43.1964],[-79.0491,43.2006],[-79.0509,43.2038],[-79.0562,43.2098],[-79.0561,43.2137],[-79.0537,43.2183],[-79.053,43.2219],[-79.0537,43.2268],[-79.0559,43.2334],[-79.0561,43.2374],[-79.0556,43.242],[-79.0547,43.2466],[-79.055,43.2527],[-79.0586,43.2581],[-79.0664,43.2611],[-79.0683,43.262],[-79.072,43.2654],[-79.0893,43.2649],[-79.0993,43.2621],[-79.1121,43.259],[-79.1222,43.2592],[-79.1281,43.2605],[-79.1394,43.2578],[-79.152,43.2499],[-79.1742,43.241],[-79.192,43.2328],[-79.2026,43.23],[-79.204,43.2465],[-79.2421,43.247],[-79.3189,43.2482],[-79.3205,43.1895],[-79.3178,43.185],[-79.3254,43.1835],[-79.3432,43.1822],[-79.3621,43.1839],[-79.3854,43.1925],[-79.4094,43.1996],[-79.4368,43.1994],[-79.4574,43.199],[-79.4736,43.1988],[-79.5133,43.1985],[-79.5129,43.1909],[-79.5124,43.1894],[-79.5131,43.1873],[-79.5127,43.183],[-79.5127,43.1704],[-79.5129,43.1673],[-79.5125,43.1661],[-79.5128,43.162],[-79.5122,43.152],[-79.5122,43.1427],[-79.512,43.135],[-79.5121,43.1326]]]},"properties":{"CMAUID":"539","CMAPUID":"35539","DGUID":"2021S0503539","DGUIDP":null,"CMANAME":"St. Catharines - Niagara","CMATYPE":"B","LANDAREA":1397.0882,"PRUID":"35"}},
{"type":"Feature","geometry":{"type":"Polygon","coordinates":[[[-80.2047,43.3975],[-80.2331,43.3929],[-80.2476,43.3906],[-80.2669,43.3874],[-80.2696,43.3873],[-80.2787,43.4102],[-80.2804,43.4118],[-80.2802,43.4137],[-80.2849,43.4256],[-80.2854,43.4265],[-80.2922,43.4432],[-80.2957,43.4514],[-80.2976,43.4541],[-80.3009,43.4612],[-80.3038,43.468],[-80.306,43.4721],[-80.3178,43.4831],[-80.3258,43.4898],[-80.3523,43.5127],[-80.3677,43.5265],[-80.374,43.5328],[-80.3733,43.5345],[-80.3704,43.5511],[-80.3698,43.5528],[-80.3697,43.5569],[-80.3677,43.569],[-80.383,43.5636],[-80.3977,43.5741],[-80.4038,43.5803],[-80.4054,43.58],[-80.4097,43.5832],[-80.42,43.5904],[-80.4373,43.6029],[-80.4551,43.6157],[-80.4748,43.6299],[-80.4756,43.6309],[-80.4801,43.6336],[-80.4894,43.6406],[-80.5,43.6479],[-80.5107,43.6558],[-80.5185,43.6609],[-80.5224,43.6641],[-80.5391,43.6764],[-80.5575,43.6896],[-80.5951,43.662],[-80.5956,43.6611],[-80.5978,43.6483],[-80.598,43.6477],[-80.5997,43.6362],[-80.6035,43.6156],[-80.607,43.5954],[-80.6082,43.5875],[-80.6095,43.5837],[-80.6095,43.5806],[-80.6128,43.561],[-80.6152,43.5458],[-80.6193,43.5205],[-80.6227,43.5001],[-80.6262,43.4797],[-80.6328,43.4791],[-80.6604,43.4771],[-80.677,43.4759],[-80.7223,43.4729],[-80.743,43.4714],[-80.7533,43.4708],[-80.7798,43.4691],[-80.7955,43.4682],[-80.7913,43.4636],[-80.7892,43.4617],[-80.7672,43.4388],[-80.7521,43.4229],[-80.7376,43.408],[-80.7372,43.4071],[-80.7369,43.3863],[-80.7364,43.3712],[-80.7355,43.3448],[-80.7349,43.311],[-80.7103,43.3146],[-80.6909,43.3176],[-80.6463,43.3247],[-80.63,43.3272],[-80.6193,43.329],[-80.6045,43.3317],[-80.5734,43.3367],[-80.5645,43.338],[-80.5412,43.3418],[-80.5036,43.3481],[-80.4993,43.3373],[-80.4915,43.3175],[-80.4832,43.2963],[-80.4715,43.2668],[-80.4357,43.2729],[-80.4059,43.2781],[-80.393,43.2802],[-80.3857,43.2815],[-80.3696,43.2841],[-80.3432,43.2887],[-80.3207,43.292],[-80.3155,43.2934],[-80.31,43.2944],[-80.2719,43.3009],[-80.2565,43.3034],[-80.2384,43.3065],[-80.2485,43.3336],[-80.2134,43.3393],[-80.1876,43.3432],[-80.1905,43.3527],[-80.1952,43.3651],[-80.1963,43.3706],[-80.2029,43.3913],[-80.2047,43.3975]]]},"properties":{"CMAUID":"541","CMAPUID":"35541","DGUID":"2021S0503541","DGUIDP":null,"CMANAME":"Kitchener - Cambridge - Waterloo","CMATYPE":"B","LANDAREA":1092.3295,"PRUID":"35"}},
{"type":"Feature","geometry":{"type":"Polygon","coordinates":[[[-80.2384,43.3065],[-80.2565,43.3034],[-80.2719,43.3009],[-80.31,43.2944],[-80.3155,43.2934],[-80.3207,43.292],[-80.3432,43.2887],[-80.3696,43.2841],[-80.3857,43.2815],[-80.393,43.2802],[-80.4059,43.2781],[-80.4357,43.2729],[-80.4715,43.2668],[-80.4605,43.2389],[-80.4523,43.2185],[-80.4462,43.2036],[-80.4416,43.1918],[-80.4365,43.1794],[-80.4639,43.1748],[-80.4877,43.1707],[-80.5077,43.1673],[-80.5246,43.1646],[-80.5585,43.1594],[-80.5859,43.1551],[-80.6087,43.1516],[-80.6026,43.135],[-80.6018,43.1321],[-80.5989,43.1259],[-80.5904,43.1038],[-80.5769,43.068],[-80.5726,43.0562],[-80.5671,43.042],[-80.5671,43.0415],[-80.5626,43.0316],[-80.5518,43.0071],[-80.5434,42.9849],[-80.5226,42.9879],[-80.5057,42.9906],[-80.4902,42.9935],[-80.4794,42.9952],[-80.4653,42.997],[-80.446,43],[-80.4277,43.0033],[-80.4221,43.0038],[-80.3794,43.0101],[-80.37,43.0115],[-80.3707,43.0132],[-80.3491,43.0165],[-80.2632,43.0291],[-80.2437,43.0321],[-80.2385,43.0304],[-80.1888,43.0125],[-80.1348,42.9925],[-80.1236,43.0092],[-80.1127,43.0256],[-80.0926,43.0181],[-80.0587,43.0057],[-80.0555,43.0103],[-80.0542,43.0111],[-80.0525,43.0148],[-80.0149,43.072],[-80.0081,43.0821],[-80.0032,43.0899],[-79.9923,43.1144],[-79.9843,43.132],[-80.0156,43.1433],[-80.0323,43.1493],[-80.0482,43.1551],[-80.0549,43.1577],[-80.0563,43.1579],[-80.0794,43.1665],[-80.1119,43.1784],[-80.1413,43.1891],[-80.1465,43.1906],[-80.1567,43.1945],[-80.1619,43.1961],[-80.177,43.2017],[-80.1987,43.21],[-80.2007,43.2109],[-80.2099,43.2338],[-80.2121,43.2387],[-80.2221,43.2646],[-80.2249,43.2713],[-80.2269,43.277],[-80.2333,43.2935],[-80.2378,43.3045],[-80.2384,43.3065]]]},"properties":{"CMAUID":"543","CMAPUID":"35543","DGUID":"2021S0503543","DGUIDP":null,"CMANAME":"Brantford","CMATYPE":"B","LANDAREA":1074.0011,"PRUID":"35"}},
{"type":"Feature","geometry":{"type":"Polygon","coordinates":[[[-80.0858,43.6291],[-80.1131,43.6481],[-80.1554,43.6779],[-80.1681,43.6867],[-80.1792,43.6946],[-80.2064,43.7137],[-80.2228,43.7253],[-80.2379,43.7118],[-80.241,43.7104],[-80.2488,43.7034],[-80.2497,43.7014],[-80.2599,43.6925],[-80.2621,43.6915],[-80.2707,43.6838],[-80.2715,43.6825],[-80.2836,43.6717],[-80.2856,43.6682],[-80.2867,43.6671],[-80.2814,43.6633],[-80.2854,43.6597],[-80.288,43.659],[-80.2907,43.6568],[-80.2966,43.6555],[-80.3033,43.6509],[-80.318,43.6403],[-80.3347,43.6285],[-80.3486,43.6184],[-80.3553,43.6233],[-80.3666,43.615],[-80.3819,43.6034],[-80.4097,43.5832],[-80.4054,43.58],[-80.4038,43.5803],[-80.3977,43.5741],[-80.383,43.5636],[-80.3677,43.569],[-80.3697,43.5569],[-80.3698,43.5528],[-80.3704,43.5511],[-80.3733,43.5345],[-80.374,43.5328],[-80.3677,43.5265],[-80.3523,43.5127],[-80.3258,43.4898],[-80.3178,43.4831],[-80.306,43.4721],[-80.3038,43.468],[-80.3009,43.4612],[-80.2976,43.4541],[-80.2957,43.4514],[-80.2922,43.4432],[-80.2854,43.4265],[-80.2849,43.4256],[-80.2802,43.4137],[-80.2804,43.4118],[-80.2787,43.4102],[-80.2696,43.3873],[-80.2669,43.3874],[-80.2476,43.3906],[-80.2331,43.3929],[-80.2047,43.3975],[-80.1802,43.4014],[-80.1527,43.4059],[-80.1068,43.4136],[-80.0799,43.4179],[-80.0786,43.4181],[-80.0812,43.4264],[-80.0838,43.4349],[-80.0836,43.4353],[-80.0586,43.453],[-80.0441,43.4637],[-80.0424,43.4648],[-80.0343,43.4711],[-80.0398,43.475],[-80.0687,43.4955],[-80.0797,43.5036],[-80.125,43.5358],[-80.1318,43.5408],[-80.1479,43.5521],[-80.1604,43.5611],[-80.1501,43.5706],[-80.145,43.567],[-80.1286,43.5816],[-80.1344,43.5854],[-80.1238,43.5947],[-80.1169,43.601],[-80.0962,43.6192],[-80.0872,43.6274],[-80.0858,43.6291]]]},"properties":{"CMAUID":"550","CMAPUID":"35550","DGUID":"2021S0503550","DGUIDP":null,"CMANAME":"Guelph","CMATYPE":"B","LANDAREA":595.0842,"PRUID":"35"}},
{"type":"Feature","geometry":{"type":"Polygon","coordinates":[[[-79.509,44.4224],[-79.5543,44.4079],[-79.6081,44.3923],[-79.6518,44.3867],[-79.6503,44.3924],[-79.6482,44.4034],[-79.6427,44.4332],[-79.6431,44.4345],[-79.6592,44.4532],[-79.684,44.4819],[-79.7176,44.5202],[-79.7309,44.5135],[-79.7446,44.5278],[-79.7461,44.5304],[-79.7503,44.5425],[-79.7506,44.5451],[-79.7501,44.547],[-79.7486,44.5491],[-79.7375,44.5612],[-79.735,44.5633],[-79.7319,44.5652],[-79.7263,44.5674],[-79.7309,44.5716],[-79.7434,44.5871],[-79.7798,44.6293],[-79.7962,44.6484],[-79.8201,44.6379],[-79.8315,44.6327],[-79.8344,44.6361],[-79.8502,44.6291],[-79.8611,44.6242],[-79.9049,44.6046],[-79.9371,44.5904],[-79.9506,44.5847],[-79.9639,44.5793],[-79.9718,44.5759],[-79.9844,44.5699],[-79.9763,44.5599],[-79.9776,44.5593],[-79.9727,44.5534],[-79.9796,44.5505],[-79.9745,44.5445],[-79.9786,44.5426],[-79.9739,44.5363],[-79.9648,44.5261],[-79.9786,44.5201],[-79.9689,44.5095],[-79.9776,44.5058],[-79.9727,44.5001],[-79.9719,44.5005],[-79.9673,44.4949],[-79.9831,44.4879],[-79.9752,44.4788],[-79.9728,44.4758],[-79.9642,44.4654],[-79.9561,44.4561],[-79.9408,44.4377],[-79.9288,44.4231],[-79.9181,44.4107],[-79.9118,44.4027],[-79.906,44.3971],[-79.8888,44.3813],[-79.8871,44.3804],[-79.8852,44.3779],[-79.8612,44.3491],[-79.8521,44.3385],[-79.8407,44.3409],[-79.807,44.3481],[-79.8037,44.3489],[-79.7793,44.354],[-79.7506,44.3601],[-79.7457,44.362],[-79.7394,44.3384],[-79.7307,44.3044],[-79.7232,44.2753],[-79.7165,44.2768],[-79.7153,44.2716],[-79.7141,44.2714],[-79.7128,44.265],[-79.7201,44.2634],[-79.7046,44.2019],[-79.7107,44.201],[-79.7104,44.1994],[-79.7157,44.1984],[-79.724,44.1964],[-79.722,44.1855],[-79.7232,44.1852],[-79.7207,44.177],[-79.7214,44.177],[-79.7179,44.1647],[-79.6964,44.1693],[-79.6214,44.1859],[-79.5842,44.194],[-79.5595,44.1997],[-79.5586,44.1997],[-79.547,44.2024],[-79.5127,44.2101],[-79.5114,44.2132],[-79.5121,44.2439],[-79.5127,44.25],[-79.511,44.2696],[-79.5118,44.289],[-79.5117,44.2942],[-79.5108,44.3013],[-79.5098,44.3067],[-79.5097,44.3874],[-79.5054,44.3973],[-79.5058,44.4099],[-79.509,44.4224]]]},"properties":{"CMAUID":"568","CMAPUID":"35568","DGUID":"2021S0503568","DGUIDP":null,"CMANAME":"Barrie","CMATYPE":"B","LANDAREA":897.2559,"PRUID":"35"}},
{"type":"Feature","geometry":{"type":"MultiPolygon","coordinates":[[[[-81.4378,42.8223],[-81.4414,42.8234],[-81.4425,42.8233],[-81.4404,42.8203],[-81.4402,42.8187],[-81.4356,42.8155],[-81.4338,42.8199],[-81.4376,42.8198],[-81.4378,42.8223]]],[[[-81.4567,42.8152],[-81.456,42.8155],[-81.4448,42.8252],[-81.4599,42.8227],[-81.4581,42.8148],[-81.4567,42.8152]]],[[[-81.0377,43.0462],[-81.0497,43.0696],[-81.0538,43.0779],[-81.0721,43.1142],[-81.0752,43.1205],[-81.0883,43.1463],[-81.1095,43.1874],[-81.1252,43.2179],[-81.1322,43.2315],[-81.1434,43.2281],[-81.1616,43.2224],[-81.1765,43.2177],[-81.2163,43.2057],[-81.2413,43.1984],[-81.2703,43.1904],[-81.2975,43.1828],[-81.3482,43.1687],[-81.3837,43.1588],[-81.3916,43.1566],[-81.4644,43.1363],[-81.4662,43.1361],[-81.4634,43.1307],[-81.4887,43.1119],[-81.5335,43.0789],[-81.5945,43.0339],[-81.6307,43.0397],[-81.6437,43.0418],[-81.6532,43.0434],[-81.7324,43.0564],[-81.7893,43.0659],[-81.7893,43.0536],[-81.7889,43.008],[-81.7888,42.9815],[-81.7889,42.9544],[-81.7891,42.9047],[-81.7895,42.869],[-81.7897,42.8557],[-81.7901,42.8162],[-81.7957,42.8122],[-81.7606,42.7856],[-81.7283,42.8091],[-81.704,42.8269],[-81.6603,42.8589],[-81.6346,42.8778],[-81.6123,42.8612],[-81.5757,42.8341],[-81.5638,42.8254],[-81.5406,42.808],[-81.5363,42.8116],[-81.5214,42.8249],[-81.5267,42.8289],[-81.5171,42.8375],[-81.5236,42.8418],[-81.5204,42.8446],[-81.518,42.8462],[-81.5155,42.847],[-81.5093,42.8426],[-81.5049,42.8439],[-81.4992,42.8396],[-81.4915,42.8417],[-81.4687,42.8614],[-81.4663,42.8499],[-81.4607,42.826],[-81.441,42.8291],[-81.4418,42.8312],[-81.4413,42.833],[-81.4391,42.8356],[-81.4362,42.837],[-81.4323,42.8373],[-81.4262,42.8362],[-81.4238,42.8347],[-81.419,42.8376],[-81.4153,42.8392],[-81.4095,42.835],[-81.4072,42.8361],[-81.4051,42.8384],[-81.4046,42.8411],[-81.4059,42.8436],[-81.4055,42.8458],[-81.4036,42.8481],[-81.4014,42.8491],[-81.3979,42.8519],[-81.3865,42.8551],[-81.3793,42.8395],[-81.3953,42.8354],[-81.3929,42.8301],[-81.3769,42.8343],[-81.3673,42.8134],[-81.3755,42.8114],[-81.3732,42.8061],[-81.381,42.8041],[-81.4044,42.7982],[-81.4239,42.7934],[-81.4275,42.7951],[-81.4316,42.7957],[-81.4353,42.7937],[-81.4362,42.7923],[-81.4364,42.789],[-81.4345,42.7846],[-81.4346,42.7799],[-81.4341,42.7785],[-81.4325,42.7779],[-81.4278,42.7801],[-81.4268,42.7823],[-81.4229,42.7825],[-81.4218,42.7822],[-81.4217,42.7786],[-81.4188,42.7751],[-81.4189,42.7744],[-81.4288,42.7725],[-81.4313,42.7724],[-81.434,42.773],[-81.4378,42.773],[-81.444,42.7736],[-81.4508,42.7734],[-81.458,42.7735],[-81.4611,42.7739],[-81.4647,42.7759],[-81.465,42.7798],[-81.4685,42.7822],[-81.4707,42.7851],[-81.4731,42.7845],[-81.4785,42.7844],[-81.4814,42.7838],[-81.4835,42.7825],[-81.486,42.7799],[-81.4868,42.7775],[-81.4851,42.7721],[-81.4828,42.7697],[-81.4796,42.7706],[-81.478,42.7701],[-81.4777,42.7655],[-81.4751,42.7595],[-81.4729,42.7569],[-81.4684,42.7537],[-81.4391,42.7309],[-81.4201,42.7166],[-81.4072,42.7065],[-81.38,42.6857],[-81.3781,42.6834],[-81.3748,42.6817],[-81.3551,42.6665],[-81.3378,42.6535],[-81.32,42.6403],[-81.2977,42.6232],[-81.2778,42.6071],[-81.2629,42.5936],[-81.235,42.5719],[-81.2189,42.5629],[-81.2198,42.5442],[-81.2203,42.5234],[-81.183,42.5253],[-81.1704,42.5261],[-81.1582,42.5266],[-81.1358,42.5268],[-81.1217,42.5263],[-81.1065,42.5247],[-81.079,42.5238],[-81.0541,42.5222],[-81.0389,42.5213],[-81.0384,42.539],[-81.0381,42.5738],[-81.0377,42.5984],[-81.0369,42.6128],[-81.0365,42.6381],[-81.0359,42.6599],[-81.0354,42.6684],[-81.0356,42.6932],[-81.0348,42.7021],[-81.0346,42.7168],[-81.0341,42.7422],[-81.0341,42.75],[-81.0331,42.7764],[-81.0326,42.7937],[-81.0321,42.8128],[-81.0326,42.8145],[-81.07,42.809],[-81.0741,42.8248],[-81.0742,42.8264],[-81.0791,42.8468],[-81.0821,42.8595],[-81.0865,42.8772],[-81.0844,42.878],[-81.0791,42.8791],[-81.0809,42.8852],[-81.0656,42.8876],[-81.0437,42.8908],[-81,42.8973],[-80.9717,42.9016],[-80.9552,42.9042],[-80.9369,42.9069],[-80.9102,42.911],[-80.9004,42.9126],[-80.8987,42.9126],[-80.9026,42.9269],[-80.915,42.9718],[-80.9213,42.9942],[-80.923,43.0008],[-80.9338,42.9994],[-80.9433,43.0065],[-80.947,43.0095],[-80.9486,43.0092],[-80.9496,43.0058],[-80.9514,43.0041],[-80.954,43.0043],[-80.9559,43.0015],[-80.958,43.0001],[-80.9586,42.9976],[-80.9617,42.9974],[-80.9634,42.9949],[-80.9707,42.9948],[-80.9709,42.9935],[-80.9739,42.9939],[-80.9735,42.9921],[-80.9744,42.9893],[-80.9775,42.9867],[-80.9813,42.9864],[-80.9831,42.9874],[-80.9836,42.9887],[-80.9866,42.9889],[-80.9855,42.9911],[-80.9876,42.9927],[-80.9937,42.9927],[-80.9991,43.0037],[-80.9998,43.0045],[-81.0055,43.0154],[-81.0052,43.0156],[-81.0187,43.0412],[-81.0235,43.0505],[-81.0377,43.0462]]]]},"properties":{"CMAUID":"555","CMAPUID":"35555","DGUID":"2021S0503555","DGUIDP":null,"CMANAME":"London","CMATYPE":"B","LANDAREA":2661.4818,"PRUID":"35"}},
{"type":"Feature","geometry":{"type":"Polygon","coordinates":[[[-82.5445,42.3925],[-82.5508,42.3976],[-82.5886,42.3974],[-82.6373,42.3975],[-82.7016,42.3975],[-82.7324,42.3978],[-82.7935,42.3981],[-82.8035,42.3981],[-82.828,42.3735],[-82.8661,42.3649],[-82.9452,42.347],[-82.9592,42.3394],[-82.9885,42.3325],[-83,42.3314],[-83.0192,42.3295],[-83.0634,42.3179],[-83.0793,42.309],[-83.0848,42.3031],[-83.097,42.2897],[-83.1116,42.2606],[-83.128,42.2387],[-83.134,42.1748],[-83.1217,42.1252],[-83.1235,42.1202],[-83.1334,42.0902],[-83.1495,42.0408],[-83.1311,42.0001],[-83.1056,41.9439],[-83.0691,41.8636],[-83,41.8306],[-83,41.8435],[-83.003,41.8464],[-83.0035,41.85],[-83.0023,41.8513],[-83,41.8522],[-83,41.8554],[-82.9816,41.8562],[-82.9587,41.8553],[-82.9239,41.8507],[-82.8865,41.8425],[-82.8575,41.8376],[-82.8091,41.8254],[-82.761,41.8121],[-82.743,41.8089],[-82.7292,41.8089],[-82.7173,41.8116],[-82.706,41.8198],[-82.7026,41.8249],[-82.6919,41.8301],[-82.6824,41.8306],[-82.6746,41.8291],[-82.6683,41.8263],[-82.6637,41.8291],[-82.6606,41.8347],[-82.6573,41.8387],[-82.6522,41.8434],[-82.646,41.8465],[-82.6406,41.8473],[-82.6346,41.8463],[-82.6287,41.8443],[-82.6262,41.8428],[-82.624,41.8407],[-82.6194,41.8327],[-82.6152,41.8267],[-82.6146,41.8249],[-82.6141,41.8152],[-82.6138,41.8116],[-82.6122,41.8086],[-82.6097,41.8059],[-82.6076,41.8031],[-82.6067,41.8009],[-82.6073,41.7966],[-82.6087,41.7924],[-82.6106,41.788],[-82.6114,41.7837],[-82.6113,41.7778],[-82.6103,41.7746],[-82.6069,41.7681],[-82.6041,41.7603],[-82.6005,41.7514],[-82.6003,41.7487],[-82.6021,41.7437],[-82.6052,41.7404],[-82.6118,41.7364],[-82.6283,41.7297],[-82.6306,41.729],[-82.6389,41.7277],[-82.6484,41.727],[-82.6493,41.7252],[-82.6483,41.7223],[-82.6469,41.72],[-82.6462,41.7166],[-82.6471,41.7125],[-82.6485,41.7096],[-82.6508,41.7072],[-82.6548,41.7043],[-82.6603,41.7022],[-82.6636,41.7016],[-82.6695,41.7017],[-82.6707,41.677],[-82.5806,41.6771],[-82.5,41.6771],[-82.5,41.75],[-82.5,41.9345],[-82.5,41.9688],[-82.4976,41.9788],[-82.4962,41.9826],[-82.4945,41.9853],[-82.493,41.9865],[-82.469,42],[-82.4652,42.0625],[-82.4634,42.0882],[-82.4694,42.0887],[-82.4686,42.0894],[-82.4678,42.1057],[-82.4645,42.1075],[-82.4645,42.1097],[-82.4619,42.1095],[-82.4596,42.1422],[-82.4571,42.1764],[-82.4559,42.1945],[-82.437,42.1937],[-82.435,42.2216],[-82.433,42.247],[-82.4366,42.2457],[-82.4367,42.2513],[-82.4403,42.25],[-82.4394,42.2609],[-82.4502,42.2585],[-82.451,42.2592],[-82.4486,42.2606],[-82.4495,42.2634],[-82.448,42.2651],[-82.4475,42.2676],[-82.4397,42.269],[-82.4396,42.2731],[-82.4337,42.2731],[-82.4336,42.2756],[-82.4347,42.2756],[-82.4345,42.2788],[-82.4355,42.2803],[-82.4309,42.2801],[-82.4299,42.2971],[-82.4304,42.2986],[-82.4363,42.3038],[-82.4376,42.3054],[-82.4403,42.3051],[-82.4434,42.3055],[-82.4434,42.3073],[-82.4406,42.3101],[-82.437,42.3152],[-82.4373,42.3166],[-82.4394,42.3178],[-82.4437,42.3167],[-82.4488,42.3171],[-82.4538,42.3189],[-82.4591,42.323],[-82.4772,42.3382],[-82.5445,42.3925]]]},"properties":{"CMAUID":"559","CMAPUID":"35559","DGUID":"2021S0503559","DGUIDP":null,"CMANAME":"Windsor","CMATYPE":"B","LANDAREA":1803.1734,"PRUID":"35"}},
{"type":"Feature","geometry":{"type":"Polygon","coordinates":[[[-80.8179,46.9728],[-80.8507,46.973],[-80.8728,46.9737],[-80.8735,46.973],[-80.9317,46.9732],[-80.9323,46.9734],[-80.9481,46.9733],[-80.9489,46.8998],[-80.9489,46.8867],[-80.9674,46.887],[-81.0043,46.8872],[-81.0748,46.8874],[-81.0739,46.8394],[-81.0732,46.8018],[-81.1272,46.801],[-81.1781,46.8002],[-81.1847,46.8001],[-81.1843,46.7691],[-81.1834,46.7155],[-81.2173,46.7149],[-81.3121,46.7133],[-81.3123,46.7154],[-81.3866,46.7153],[-81.3887,46.7154],[-81.4193,46.7153],[-81.4446,46.7151],[-81.4444,46.6744],[-81.4444,46.6469],[-81.4451,46.6248],[-81.4444,46.6165],[-81.4439,46.5537],[-81.4434,46.5425],[-81.4391,46.4961],[-81.5003,46.4969],[-81.5682,46.4975],[-81.5677,46.4323],[-81.5671,46.4078],[-81.567,46.3965],[-81.5973,46.3961],[-81.5975,46.366],[-81.5671,46.3662],[-81.5669,46.3469],[-81.5668,46.3451],[-81.5672,46.3336],[-81.5665,46.318],[-81.5665,46.2963],[-81.5663,46.2794],[-81.5077,46.28],[-81.4364,46.2797],[-81.437,46.2552],[-81.437,46.25],[-81.4361,46.2081],[-81.4359,46.1953],[-81.3653,46.1984],[-81.3406,46.1988],[-81.3069,46.1998],[-81.3074,46.227],[-81.2846,46.2246],[-81.2624,46.2221],[-81.2577,46.2228],[-81.2547,46.2246],[-81.2477,46.2189],[-81.2457,46.2179],[-81.242,46.2173],[-81.2329,46.2164],[-81.2291,46.2181],[-81.2303,46.2203],[-81.235,46.2342],[-81.2225,46.246],[-81.2231,46.2479],[-81.2214,46.2487],[-81.2207,46.2502],[-81.2236,46.2524],[-81.221,46.253],[-81.2188,46.2512],[-81.2171,46.2512],[-81.2008,46.2672],[-81.1726,46.2945],[-81.1477,46.3185],[-81.1485,46.3257],[-81.1473,46.3271],[-81.1393,46.3341],[-81.1309,46.3377],[-81.1266,46.3444],[-81.1312,46.3485],[-81.1264,46.3488],[-81.1215,46.3498],[-81.116,46.3518],[-81.1094,46.355],[-81.1037,46.3582],[-81.0949,46.3637],[-81.0777,46.3636],[-81.0773,46.3556],[-81.0821,46.3558],[-81.0822,46.3481],[-81.0737,46.3478],[-81.0664,46.348],[-81.0459,46.348],[-81.0463,46.3644],[-81.0204,46.3635],[-81.0068,46.3635],[-80.9696,46.3632],[-80.9336,46.363],[-80.9179,46.363],[-80.9023,46.3628],[-80.8803,46.3627],[-80.8711,46.3623],[-80.8295,46.3618],[-80.8268,46.3617],[-80.81,46.3622],[-80.8005,46.3622],[-80.7658,46.3618],[-80.7559,46.3616],[-80.7003,46.361],[-80.693,46.361],[-80.6926,46.3622],[-80.6928,46.4163],[-80.6927,46.4501],[-80.6913,46.45],[-80.6095,46.45],[-80.6093,46.4352],[-80.6094,46.4015],[-80.6096,46.3938],[-80.6029,46.3978],[-80.6013,46.3978],[-80.5982,46.3996],[-80.5974,46.4016],[-80.5977,46.4029],[-80.5958,46.4036],[-80.5938,46.4063],[-80.5951,46.4073],[-80.5938,46.4086],[-80.5903,46.4102],[-80.5891,46.4116],[-80.5864,46.4123],[-80.5832,46.4148],[-80.5816,46.4154],[-80.5784,46.4146],[-80.5731,46.4149],[-80.5671,46.4139],[-80.5674,46.3725],[-80.5675,46.3623],[-80.5672,46.3467],[-80.5671,46.3463],[-80.5684,46.308],[-80.5688,46.2778],[-80.547,46.2781],[-80.5087,46.2789],[-80.5088,46.2781],[-80.502,46.2775],[-80.4968,46.2756],[-80.4954,46.2739],[-80.4917,46.2713],[-80.4899,46.2724],[-80.4906,46.2739],[-80.4848,46.2733],[-80.484,46.2737],[-80.4809,46.2729],[-80.4784,46.271],[-80.4768,46.2691],[-80.4779,46.2686],[-80.4837,46.2706],[-80.4858,46.2699],[-80.4807,46.2679],[-80.4784,46.268],[-80.476,46.2665],[-80.4711,46.2646],[-80.4713,46.2622],[-80.4763,46.2603],[-80.4754,46.2594],[-80.4759,46.2573],[-80.4755,46.2554],[-80.4768,46.2516],[-80.4749,46.2509],[-80.4711,46.2512],[-80.4695,46.252],[-80.4677,46.2513],[-80.4666,46.2525],[-80.4678,46.256],[-80.4659,46.2577],[-80.4632,46.2551],[-80.46,46.2563],[-80.4633,46.2587],[-80.4618,46.26],[-80.4591,46.2606],[-80.4579,46.258],[-80.4523,46.2576],[-80.4491,46.2564],[-80.4476,46.2549],[-80.444,46.255],[-80.4419,46.2541],[-80.4403,46.2546],[-80.432,46.2527],[-80.4281,46.2511],[-80.4265,46.2511],[-80.424,46.25],[-80.3859,46.2501],[-80.3509,46.2502],[-80.3105,46.2504],[-80.3064,46.2502],[-80.306,46.2524],[-80.3059,46.2588],[-80.3052,46.2724],[-80.3061,46.2903],[-80.3065,46.3299],[-80.3069,46.3503],[-80.307,46.3629],[-80.2906,46.3629],[-80.2913,46.3918],[-80.2918,46.4221],[-80.2922,46.4333],[-80.2924,46.4456],[-80.2922,46.4503],[-80.2924,46.4695],[-80.2926,46.4739],[-80.2923,46.4757],[-80.2922,46.4834],[-80.2917,46.4871],[-80.2924,46.4899],[-80.2926,46.4938],[-80.292,46.4953],[-80.2921,46.5009],[-80.2933,46.5074],[-80.2924,46.5375],[-80.2918,46.5518],[-80.2925,46.5658],[-80.3084,46.5657],[-80.4187,46.5659],[-80.4189,46.5807],[-80.4713,46.5813],[-80.5447,46.5819],[-80.5661,46.5819],[-80.5663,46.5747],[-80.5663,46.5611],[-80.5666,46.5548],[-80.5665,46.5515],[-80.5668,46.537],[-80.6332,46.5369],[-80.6428,46.537],[-80.678,46.5368],[-80.6698,46.5422],[-80.6673,46.5435],[-80.6641,46.548],[-80.6643,46.5492],[-80.6662,46.5513],[-80.6695,46.5521],[-80.6628,46.5536],[-80.6586,46.5539],[-80.6596,46.5554],[-80.657,46.5596],[-80.6583,46.561],[-80.661,46.5591],[-80.6618,46.5598],[-80.6603,46.5614],[-80.6609,46.5626],[-80.6604,46.5658],[-80.6614,46.5664],[-80.6601,46.5705],[-80.6619,46.5736],[-80.6659,46.5754],[-80.664,46.5759],[-80.6636,46.5774],[-80.6665,46.5787],[-80.6662,46.5807],[-80.663,46.5792],[-80.6613,46.5809],[-80.6575,46.5814],[-80.6558,46.5798],[-80.6535,46.5798],[-80.6528,46.5825],[-80.6563,46.5831],[-80.6559,46.5845],[-80.6495,46.5875],[-80.648,46.5897],[-80.6452,46.5928],[-80.6452,46.5943],[-80.6436,46.5951],[-80.6442,46.5962],[-80.6495,46.5971],[-80.6518,46.5979],[-80.6529,46.5992],[-80.6517,46.6012],[-80.6553,46.6043],[-80.657,46.6067],[-80.6563,46.6091],[-80.6577,46.6153],[-80.6573,46.6168],[-80.659,46.6212],[-80.6588,46.6236],[-80.6599,46.6247],[-80.6311,46.6247],[-80.6132,46.6245],[-80.5675,46.6246],[-80.5646,46.6245],[-80.5647,46.6315],[-80.5662,46.6643],[-80.5656,46.6834],[-80.5645,46.6834],[-80.5642,46.6875],[-80.5651,46.6882],[-80.5569,46.6884],[-80.5488,46.7112],[-80.5638,46.7112],[-80.5666,46.7565],[-80.5657,46.8033],[-80.5643,46.8767],[-80.5641,46.8822],[-80.6218,46.8835],[-80.7013,46.8852],[-80.7646,46.8865],[-80.82,46.8876],[-80.8187,46.9415],[-80.8179,46.9728]]]},"properties":{"CMAUID":"580","CMAPUID":"35580","DGUID":"2021S0503580","DGUIDP":null,"CMANAME":"Greater Sudbury / Grand Sudbury","CMATYPE":"B","LANDAREA":4187.3969,"PRUID":"35"}}
]}