{"type":"FeatureCollection", "features": [
{"type":"Feature","geometry":{"type":"Polygon","coordinates":[[[-88.874,56.8615],[-88.8936,56.8603],[-88.8954,56.8542],[-88.9186,56.848],[-88.9473,56.8483],[-88.9796,56.8511],[-89.149,56.7501],[-89.3059,56.6557],[-89.458,56.5636],[-89.6442,56.4498],[-89.8094,56.348],[-89.9672,56.25],[-90.1529,56.1338],[-90.3112,56.0342],[-90.5535,55.8803],[-90.8023,55.7204],[-91,55.5912],[-91.1633,55.4835],[-91.44,55.2992],[-91.6478,55.1585],[-91.7476,55.0851],[-91.8701,54.9998],[-92,54.906],[-92.1887,54.7749],[-92.3838,54.6423],[-92.5355,54.5384],[-92.6586,54.4534],[-92.9276,54.2636],[-93.14,54.1112],[-93.1897,54.0748],[-93.3292,53.9697],[-93.5205,53.8315],[-93.6296,53.7502],[-93.6376,53.7448],[-93.7377,53.6852],[-93.9584,53.5537],[-94.0455,53.5048],[-94.2627,53.3814],[-94.5275,53.2229],[-94.7371,53.0959],[-95.0036,52.933],[-95.1532,52.8406],[-95.1528,52.6303],[-95.1529,52.5158],[-95.1531,52.3325],[-95.1531,52.18],[-95.1531,51.969],[-95.1529,51.7451],[-95.153,51.5422],[-95.1527,51.5071],[-95.1527,51.3301],[-95.153,51.1198],[-95.153,50.9431],[-95.153,50.7815],[-95.1529,50.6371],[-95.1529,50.4589],[-95.1526,50.3772],[-95.1529,50.2473],[-95.1527,50.1107],[-95.1529,50.0012],[-95.1529,49.8332],[-95.1533,49.798],[-95.1521,49.7462],[-95.1541,49.7391],[-95.153,49.6917],[-95.1534,49.6453],[-95.1526,49.5765],[-95.1537,49.5599],[-95.1521,49.4918],[-95.1535,49.3958],[-95.1499,49.3808],[-95.1289,49.3705],[-95.1033,49.3634],[-95.0581,49.3531],[-95.0141,49.3565],[-94.9891,49.3689],[-94.9747,49.3677],[-94.9575,49.3703],[-94.9087,49.3501],[-94.8781,49.3334],[-94.8541,49.3243],[-94.8157,49.3214],[-94.8243,49.3086],[-94.8252,49.2942],[-94.7972,49.2137],[-94.7979,49.198],[-94.7729,49.1206],[-94.7497,49.0987],[-94.7063,48.9592],[-94.6834,48.8841],[-94.6843,48.8724],[-94.6924,48.869],[-94.6931,48.8534],[-94.6856,48.8401],[-94.702,48.8318],[-94.7043,48.8242],[-94.6951,48.8091],[-94.696,48.7996],[-94.6909,48.778],[-94.6672,48.7662],[-94.652,48.7561],[-94.6413,48.7412],[-94.6192,48.7372],[-94.6012,48.7282],[-94.5876,48.7176],[-94.5558,48.7162],[-94.5458,48.7124],[-94.5385,48.7027],[-94.5093,48.7005],[-94.4996,48.698],[-94.4707,48.6966],[-94.4524,48.6924],[-94.4388,48.6948],[-94.4158,48.711],[-94.389,48.7119],[-94.3688,48.7065],[-94.3431,48.7034],[-94.3288,48.7044],[-94.3088,48.7103],[-94.2829,48.7056],[-94.2611,48.6966],[-94.2514,48.6836],[-94.2548,48.664],[-94.2445,48.6535],[-94.2242,48.6494],[-94.1997,48.6509],[-94.1575,48.6457],[-94.1261,48.6443],[-94.0999,48.6459],[-94.0913,48.6437],[-94.0659,48.6462],[-94.0603,48.6431],[-94.0296,48.6409],[-94.0069,48.6433],[-93.953,48.6341],[-93.8481,48.6308],[-93.8334,48.6256],[-93.8214,48.6092],[-93.8042,48.5702],[-93.812,48.5503],[-93.811,48.5409],[-93.8185,48.5314],[-93.8111,48.5246],[-93.7934,48.5163],[-93.7535,48.5157],[-93.7391,48.5185],[-93.7109,48.5186],[-93.693,48.5152],[-93.6473,48.5177],[-93.6358,48.5284],[-93.6257,48.5314],[-93.6122,48.5224],[-93.5901,48.5304],[-93.581,48.5271],[-93.5477,48.5293],[-93.5172,48.5348],[-93.5011,48.5413],[-93.4674,48.5464],[-93.4597,48.5537],[-93.4575,48.5671],[-93.4672,48.5884],[-93.4627,48.5927],[-93.4398,48.5937],[-93.4227,48.6032],[-93.4035,48.61],[-93.3986,48.6044],[-93.3714,48.6059],[-93.362,48.614],[-93.3551,48.6114],[-93.3487,48.6264],[-93.2547,48.6428],[-93.2075,48.6425],[-93.1784,48.6233],[-93.0903,48.6278],[-92.9846,48.6238],[-92.9548,48.6316],[-92.9498,48.6303],[-92.95,48.6084],[-92.9296,48.6069],[-92.9101,48.5964],[-92.8945,48.595],[-92.7284,48.5394],[-92.6579,48.5462],[-92.6349,48.5426],[-92.6251,48.5129],[-92.6371,48.4993],[-92.6541,48.5017],[-92.6615,48.4963],[-92.6857,48.4974],[-92.6987,48.4948],[-92.7012,48.4847],[-92.7127,48.463],[-92.6881,48.4437],[-92.6635,48.44],[-92.6562,48.4365],[-92.5766,48.4406],[-92.5369,48.4478],[-92.5075,48.448],[-92.4894,48.4303],[-92.482,48.4283],[-92.4754,48.4186],[-92.4564,48.4141],[-92.4564,48.4011],[-92.4765,48.3719],[-92.4698,48.3521],[-92.4524,48.328],[-92.4318,48.3052],[-92.4156,48.2951],[-92.4018,48.2714],[-92.3847,48.2492],[-92.3844,48.2413],[-92.3752,48.2259],[-92.3622,48.2227],[-92.3536,48.2301],[-92.3333,48.2338],[-92.3149,48.2405],[-92.2804,48.2444],[-92.2696,48.2482],[-92.2736,48.2565],[-92.2902,48.2651],[-92.3014,48.2883],[-92.2946,48.3062],[-92.3062,48.3163],[-92.2954,48.3239],[-92.2888,48.3428],[-92.2626,48.3549],[-92.2067,48.3456],[-92.1785,48.3518],[-92.1774,48.3571],[-92.162,48.3633],[-92.1449,48.3657],[-92.1437,48.356],[-92.0909,48.3545],[-92.0782,48.358],[-92.0552,48.3594],[-92.0489,48.3486],[-92.0469,48.3348],[-92.0377,48.3331],[-92.0308,48.3257],[-92.0001,48.3211],[-92.013,48.2974],[-92.0072,48.2806],[-92.0065,48.2654],[-91.9891,48.2603],[-91.9806,48.2479],[-91.959,48.2537],[-91.9584,48.2331],[-91.9421,48.2304],[-91.9376,48.2342],[-91.9149,48.2389],[-91.8931,48.238],[-91.8843,48.2274],[-91.8676,48.2192],[-91.8644,48.2069],[-91.8154,48.2118],[-91.7973,48.2027],[-91.7807,48.2008],[-91.7415,48.1993],[-91.7372,48.2042],[-91.7154,48.1995],[-91.7122,48.1875],[-91.7213,48.1803],[-91.7244,48.1705],[-91.7048,48.1707],[-91.7069,48.1504],[-91.6978,48.1416],[-91.6995,48.132],[-91.7117,48.1146],[-91.6922,48.1169],[-91.6768,48.1075],[-91.6531,48.1098],[-91.6399,48.0971],[-91.6149,48.1023],[-91.5888,48.1025],[-91.5756,48.1069],[-91.5591,48.1086],[-91.5528,48.1033],[-91.5694,48.0937],[-91.5754,48.0667],[-91.5754,48.0489],[-91.5675,48.0438],[-91.5417,48.0539],[-91.4882,48.0684],[-91.4647,48.0669],[-91.45,48.0691],[-91.4378,48.0525],[-91.4296,48.0487],[-91.4136,48.0537],[-91.3909,48.0572],[-91.3708,48.0697],[-91.365,48.0671],[-91.34,48.0736],[-91.2897,48.0742],[-91.2497,48.0841],[-91.2349,48.0961],[-91.2149,48.1029],[-91.1901,48.1251],[-91.1766,48.1255],[-91.1563,48.1405],[-91.1373,48.1493],[-91.1426,48.1546],[-91.1199,48.1607],[-91.1147,48.1665],[-91.092,48.1737],[-91.0825,48.1811],[-91.0655,48.1814],[-91.0554,48.1883],[-91.0311,48.1888],[-91.0041,48.203],[-90.977,48.2196],[-90.9264,48.2298],[-90.9151,48.2308],[-90.9069,48.2375],[-90.8857,48.2459],[-90.8815,48.2405],[-90.8669,48.2382],[-90.8477,48.2445],[-90.8393,48.2396],[-90.8326,48.1735],[-90.8175,48.1794],[-90.8041,48.1778],[-90.8007,48.1632],[-90.7904,48.1599],[-90.7762,48.1619],[-90.779,48.1505],[-90.7967,48.1394],[-90.7866,48.1276],[-90.7764,48.124],[-90.7614,48.0984],[-90.7516,48.091],[-90.7414,48.0946],[-90.7029,48.096],[-90.6863,48.1004],[-90.6415,48.1035],[-90.6271,48.1118],[-90.5757,48.1206],[-90.5591,48.1217],[-90.5555,48.1169],[-90.5697,48.1068],[-90.5567,48.0959],[-90.5169,48.0993],[-90.4867,48.0991],[-90.4674,48.1088],[-90.4384,48.0987],[-90.4032,48.1051],[-90.3749,48.091],[-90.3674,48.0947],[-90.346,48.094],[-90.3301,48.1023],[-90.3058,48.1052],[-90.2892,48.0991],[-90.2745,48.1032],[-90.2538,48.1023],[-90.2252,48.1083],[-90.2107,48.1064],[-90.1886,48.1081],[-90.1765,48.1124],[-90.1643,48.1098],[-90.1426,48.1128],[-90.116,48.1042],[-90.0916,48.1047],[-90.0575,48.0964],[-90.0233,48.0848],[-90.0188,48.072],[-90.0087,48.0686],[-89.9938,48.0494],[-89.9973,48.0352],[-89.9937,48.028],[-89.9753,48.0233],[-89.9685,48.0147],[-89.9523,48.0107],[-89.9351,48.0157],[-89.9277,48.0026],[-89.9147,47.9944],[-89.8956,47.9873],[-89.8724,47.9854],[-89.8685,47.99],[-89.8478,47.9924],[-89.8425,48.0018],[-89.8313,47.9996],[-89.82,48.0154],[-89.8009,48.014],[-89.7675,48.0226],[-89.7332,48.0218],[-89.7166,48.0101],[-89.7026,48.0063],[-89.6885,48.0108],[-89.6737,48.0115],[-89.653,48.0043],[-89.6266,48.0116],[-89.5861,48.0018],[-89.5807,47.9963],[-89.5647,48.0026],[-89.4894,48.0146],[-89.3374,47.9741],[-89.1258,48.0616],[-88.9396,48.1377],[-88.867,48.1677],[-88.6792,48.2439],[-88.3686,48.3056],[-88.1135,48.2098],[-87.9977,48.1659],[-87.3015,47.8977],[-86.4959,47.5763],[-86.3069,47.4994],[-86,47.3731],[-85.7664,47.2758],[-85.5,47.1636],[-85.2847,47.072],[-85.1129,47.0023],[-84.8543,46.8922],[-84.8281,46.8064],[-84.7628,46.6343],[-84.5568,46.4608],[-84.4765,46.4529],[-84.4452,46.4891],[-84.4211,46.5006],[-84.3955,46.4986],[-84.3741,46.5092],[-84.3419,46.5075],[-84.3252,46.4998],[-84.2937,46.4929],[-84.2655,46.4944],[-84.2548,46.5009],[-84.2259,46.5341],[-84.1937,46.5402],[-84.1777,46.5271],[-84.1668,46.5263],[-84.1395,46.5324],[-84.129,46.5305],[-84.1182,46.5179],[-84.1111,46.5042],[-84.1461,46.4188],[-84.139,46.3724],[-84.1201,46.3384],[-84.1059,46.322],[-84.1194,46.3149],[-84.1154,46.268],[-84.0976,46.2564],[-84.1082,46.2414],[-84.0858,46.2101],[-84.0771,46.1873],[-84.006,46.1494],[-84.0063,46.1183],[-83.9763,46.1024],[-83.9555,46.0567],[-83.9035,46.0604],[-83.8263,46.1189],[-83.7599,46.1027],[-83.655,46.1217],[-83.5719,46.1058],[-83.4338,45.9982],[-83.5,45.9267],[-83.5939,45.8199],[-83.435,45.7501],[-83.1066,45.6045],[-82.8774,45.5016],[-82.742,45.5033],[-82.6009,45.5038],[-82.5029,45.5045],[-82.4329,45.5038],[-82.2176,45.5026],[-82.1173,45.5026],[-82.1171,45.5001],[-82,45.5],[-82,45.3608],[-81.8168,45.3616],[-81.8168,45.343],[-81.8021,45.3094],[-81.7782,45.2832],[-81.7452,45.2502],[-81.7448,45.2172],[-81.7221,45.1821],[-81.6901,45.1384],[-81.6525,45.0973],[-81.603,45.0469],[-81.5719,45.0183],[-81.5543,45.0102],[-81.4975,45.0024],[-81.4532,44.9995],[-81.4474,44.9938],[-81.4482,44.965],[-81.4444,44.9504],[-81.429,44.924],[-81.4139,44.877],[-81.3719,44.7975],[-81.3447,44.7621],[-81.3373,44.7579],[-81.3537,44.6874],[-81.3523,44.6517],[-81.3534,44.6147],[-81.3752,44.5653],[-81.4132,44.5191],[-81.436,44.4982],[-81.4475,44.4913],[-81.4708,44.4819],[-81.4991,44.466],[-81.5506,44.4236],[-81.6283,44.3458],[-81.6405,44.322],[-81.6596,44.2528],[-81.6833,44.1977],[-81.6896,44.1879],[-81.7107,44.1654],[-81.7368,44.1344],[-81.7537,44.107],[-81.7612,44.0915],[-81.7664,44.0723],[-81.7643,44.046],[-81.7467,44.0019],[-81.7478,43.9934],[-81.745,43.9649],[-81.7407,43.9407],[-81.735,43.8822],[-81.7353,43.8664],[-81.7403,43.8155],[-81.7394,43.7908],[-81.7329,43.7614],[-81.7325,43.7499],[-81.7397,43.7361],[-81.7417,43.7046],[-81.7349,43.6732],[-81.722,43.5486],[-81.7197,43.5008],[-81.7185,43.4972],[-81.735,43.4527],[-81.7398,43.396],[-81.7438,43.3737],[-81.7575,43.3315],[-81.7633,43.3196],[-81.7696,43.3222],[-81.895,43.2518],[-81.9064,43.2484],[-81.9836,43.2355],[-82,43.2368],[-82,43.25],[-82.2949,43.2498],[-82.3384,43.1629],[-82.4137,43.0115],[-82.424,42.9981],[-82.4213,42.9855],[-82.413,42.9774],[-82.4167,42.9669],[-82.4286,42.9522],[-82.4478,42.9376],[-82.4553,42.9267],[-82.4703,42.8875],[-82.4682,42.8554],[-82.4727,42.8367],[-82.4788,42.8255],[-82.482,42.8082],[-82.4719,42.7861],[-82.4674,42.7625],[-82.4839,42.7335],[-82.4837,42.7184],[-82.4946,42.7003],[-82.5105,42.6648],[-82.5097,42.638],[-82.5186,42.6141],[-82.5234,42.6074],[-82.5492,42.5911],[-82.5535,42.585],[-82.5803,42.5641],[-82.584,42.5539],[-82.6055,42.5485],[-82.624,42.5569],[-82.6412,42.5548],[-82.6624,42.5412],[-82.6677,42.5336],[-82.828,42.3735],[-82.9452,42.347],[-82.9592,42.3394],[-82.9885,42.3325],[-83.0192,42.3295],[-83.0634,42.3179],[-83.0793,42.309],[-83.097,42.2897],[-83.1116,42.2606],[-83.128,42.2387],[-83.134,42.1748],[-83.1217,42.1252],[-83.1495,42.0408],[-83.0691,41.8636],[-82.8322,41.7501],[-82.8312,41.7501],[-82.6802,41.6769],[-82.5,41.6771],[-82.5,41.75],[-82.5,41.9688],[-82.493,41.9865],[-82.469,42],[-82.4653,42.0599],[-82.3536,42.0907],[-82.2186,42.1597],[-82.1649,42.1875],[-82.0468,42.25],[-81.8545,42.2501],[-81.8237,42.2531],[-81.7862,42.2613],[-81.7775,42.2701],[-81.7777,42.2814],[-81.8105,42.3076],[-81.7147,42.3741],[-81.6242,42.4359],[-81.5762,42.396],[-81.5013,42.3356],[-81.5014,42.3743],[-81.5027,42.4683],[-81.5025,42.5013],[-81.4742,42.5056],[-81.4316,42.5098],[-81.3319,42.5178],[-81.2202,42.5242],[-81.1358,42.5268],[-81.0389,42.5213],[-81.023,42.5213],[-80.8651,42.5143],[-80.8218,42.5119],[-80.7237,42.5078],[-80.5476,42.5073],[-80.4303,42.5066],[-80.2486,42.5074],[-80.1556,42.5215],[-80.0504,42.5357],[-80.0332,42.5402],[-80.0261,42.5451],[-80.0177,42.5594],[-80.059,42.6706],[-80.0513,42.7511],[-80.0318,42.759],[-80.0063,42.7604],[-79.9045,42.7603],[-79.6695,42.7632],[-79.6176,42.7642],[-79.5034,42.7687],[-79.4356,42.769],[-79.4051,42.7652],[-79.3315,42.7522],[-79.283,42.7507],[-79.2616,42.7541],[-79.2346,42.7543],[-79.1852,42.7521],[-79.1717,42.7535],[-79.1416,42.7513],[-78.9354,42.8284],[-78.9189,42.8736],[-78.9061,42.9002],[-78.9059,42.9238],[-78.9196,42.9472],[-78.933,42.9562],[-78.962,42.9579],[-78.9751,42.9688],[-79.012,42.9853],[-79.0203,42.9948],[-79.0234,43.0163],[-79.0119,43.0292],[-78.9997,43.056],[-79.0074,43.0659],[-79.068,43.0769],[-79.0767,43.0804],[-79.0638,43.0955],[-79.0582,43.1068],[-79.0601,43.1137],[-79.0704,43.1209],[-79.0555,43.1282],[-79.0431,43.1392],[-79.0427,43.1483],[-79.0474,43.1632],[-79.0537,43.1713],[-79.0526,43.1871],[-79.0491,43.1964],[-79.0562,43.2098],[-79.053,43.2219],[-79.0559,43.2334],[-79.055,43.2527],[-79.072,43.2654],[-79.0893,43.2649],[-79.1121,43.259],[-79.1281,43.2605],[-79.1394,43.2578],[-79.152,43.2499],[-79.192,43.2328],[-79.2026,43.23],[-79.204,43.2465],[-79.3189,43.2482],[-79.3205,43.1895],[-79.3178,43.185],[-79.3432,43.1822],[-79.3621,43.1839],[-79.4094,43.1996],[-79.5133,43.1985],[-79.5514,43.2098],[-79.5793,43.2102],[-79.6188,43.2334],[-79.6284,43.2286],[-79.6505,43.2231],[-79.6655,43.2258],[-79.6822,43.234],[-79.7053,43.2354],[-79.7341,43.2457],[-79.7767,43.2753],[-79.7931,43.3013],[-79.7969,43.3179],[-79.77,43.3338],[-79.7391,43.3561],[-79.7288,43.3619],[-79.6832,43.3988],[-79.6678,43.4159],[-79.6335,43.4639],[-79.6162,43.4749],[-79.54,43.5451],[-79.5193,43.5633],[-79.4935,43.5928],[-79.4769,43.6084],[-79.4638,43.6237],[-79.4697,43.6315],[-79.4581,43.6353],[-79.4468,43.6342],[-79.4249,43.6248],[-79.4061,43.6276],[-79.3946,43.6193],[-79.3931,43.6122],[-79.3837,43.6104],[-79.3709,43.6144],[-79.356,43.6254],[-79.3442,43.6124],[-79.3393,43.6129],[-79.3265,43.6262],[-79.3166,43.6261],[-79.3185,43.6468],[-79.3008,43.6574],[-79.2975,43.6639],[-79.2792,43.6696],[-79.261,43.688],[-79.2326,43.6998],[-79.2216,43.7102],[-79.2185,43.721],[-79.1894,43.7446],[-79.1729,43.7536],[-79.1524,43.7586],[-79.1021,43.8033],[-79.092,43.8095],[-79.0604,43.8057],[-79.0451,43.8139],[-79.025,43.8158],[-78.9983,43.8262],[-78.9835,43.8271],[-78.9722,43.8321],[-78.9557,43.8445],[-78.9291,43.8515],[-78.903,43.8459],[-78.8946,43.852],[-78.8821,43.8524],[-78.8737,43.8337],[-78.8687,43.8351],[-78.7823,43.8358],[-78.7962,43.867],[-78.7849,43.8697],[-78.7499,43.8682],[-78.7385,43.87],[-78.7256,43.8669],[-78.7117,43.8677],[-78.6843,43.8785],[-78.676,43.8851],[-78.6526,43.8923],[-78.6362,43.8929],[-78.6176,43.8985],[-78.5977,43.8958],[-78.5414,43.8959],[-78.5029,43.9006],[-78.482,43.8966],[-78.4663,43.9004],[-78.437,43.9119],[-78.4297,43.8953],[-78.2783,43.919],[-78.1405,43.9218],[-78.0019,43.9384],[-77.9043,43.9587],[-77.8826,43.9625],[-77.8664,43.9622],[-77.845,43.959],[-77.7874,43.9592],[-77.7635,43.9537],[-77.7491,43.9529],[-77.754,43.9636],[-77.6251,43.9972],[-77.566,43.8786],[-77.5135,43.8749],[-77.4963,43.8709],[-77.328,43.8211],[-77.2075,43.8035],[-77.148,43.7982],[-77.0043,43.8036],[-76.9913,43.8053],[-76.7974,43.8656],[-76.5825,43.9094],[-76.4387,44.0941],[-76.3527,44.1344],[-76.3126,44.1991],[-76.2864,44.2039],[-76.2454,44.2039],[-76.2068,44.215],[-76.1916,44.2216],[-76.1643,44.2399],[-76.1618,44.2808],[-76.1312,44.2965],[-76.1183,44.2949],[-76.0969,44.2998],[-76.0455,44.3319],[-76.0086,44.344],[-76.0012,44.3479],[-75.975,44.346],[-75.9701,44.3425],[-75.9497,44.3489],[-75.9295,44.3593],[-75.9216,44.3687],[-75.9128,44.3678],[-75.8699,44.3962],[-75.8214,44.432],[-75.8076,44.4717],[-75.7669,44.5153],[-75.721,44.5474],[-75.699,44.5659],[-75.6589,44.5942],[-75.6183,44.6196],[-75.5049,44.7054],[-75.4761,44.7206],[-75.4237,44.7561],[-75.4138,44.7722],[-75.3967,44.7733],[-75.3882,44.7794],[-75.3699,44.7829],[-75.3697,44.7877],[-75.3445,44.8089],[-75.3335,44.8062],[-75.3019,44.8264],[-75.3075,44.8367],[-75.2847,44.8484],[-75.256,44.8573],[-75.241,44.8671],[-75.2284,44.8682],[-75.2182,44.8778],[-75.203,44.8778],[-75.1649,44.8935],[-75.14,44.8969],[-75.1347,44.915],[-75.1178,44.921],[-75.1048,44.9196],[-75.0964,44.927],[-75.0647,44.9294],[-75.0598,44.9345],[-75.0271,44.9465],[-75.0048,44.9586],[-74.9993,44.9717],[-74.9928,44.9775],[-74.9725,44.9835],[-74.947,44.9848],[-74.908,44.9835],[-74.901,44.9926],[-74.8875,45.0001],[-74.8663,45.0005],[-74.8461,45.0103],[-74.8265,45.0159],[-74.817,45.0116],[-74.8014,45.0146],[-74.7928,45.0044],[-74.7631,45.0057],[-74.7603,44.995],[-74.7445,44.9907],[-74.7309,44.9905],[-74.7218,44.9984],[-74.7022,45.0033],[-74.6864,45.0001],[-74.6732,45.0008],[-74.653,45.0192],[-74.5965,45.0414],[-74.5548,45.0445],[-74.5302,45.0524],[-74.5011,45.0651],[-74.493,45.0661],[-74.4417,45.1308],[-74.4196,45.1411],[-74.3776,45.1538],[-74.3204,45.1869],[-74.4719,45.3027],[-74.4214,45.4398],[-74.4049,45.4886],[-74.3809,45.5659],[-74.3962,45.5705],[-74.4323,45.5723],[-74.4433,45.5763],[-74.4608,45.5887],[-74.4724,45.5937],[-74.4895,45.5953],[-74.51,45.5922],[-74.5351,45.5948],[-74.5628,45.6066],[-74.6099,45.6227],[-74.6255,45.6346],[-74.6381,45.6388],[-74.6783,45.6325],[-74.7293,45.6283],[-74.7528,45.6336],[-74.7864,45.6388],[-74.8013,45.6392],[-74.8352,45.6358],[-74.8784,45.6419],[-74.9283,45.6457],[-74.943,45.6434],[-74.9672,45.6246],[-74.989,45.6108],[-75.0162,45.5989],[-75.0355,45.5938],[-75.0875,45.588],[-75.1135,45.5786],[-75.1326,45.5766],[-75.1555,45.5785],[-75.1735,45.577],[-75.1983,45.5854],[-75.2223,45.5875],[-75.2426,45.5855],[-75.3003,45.5583],[-75.317,45.5462],[-75.3425,45.537],[-75.3834,45.5272],[-75.391,45.5242],[-75.4153,45.5231],[-75.4236,45.5199],[-75.4454,45.5211],[-75.4779,45.5135],[-75.5204,45.4988],[-75.5562,45.4845],[-75.5756,45.4748],[-75.619,45.4714],[-75.6394,45.4659],[-75.6649,45.4634],[-75.6832,45.4591],[-75.6961,45.4495],[-75.7026,45.4376],[-75.7037,45.4266],[-75.7296,45.417],[-75.7564,45.4124],[-75.7789,45.3903],[-75.797,45.3783],[-75.8178,45.3727],[-75.8426,45.376],[-75.884,45.395],[-75.8952,45.4016],[-75.9287,45.4288],[-75.9547,45.4603],[-75.9872,45.4796],[-76.0232,45.4891],[-76.0482,45.5001],[-76.0899,45.5139],[-76.1056,45.5162],[-76.1404,45.5182],[-76.1662,45.5173],[-76.201,45.5189],[-76.2278,45.5118],[-76.2335,45.5078],[-76.2385,45.4753],[-76.2451,45.4686],[-76.2913,45.4659],[-76.317,45.457],[-76.3617,45.4571],[-76.3862,45.4647],[-76.4335,45.4921],[-76.4536,45.5004],[-76.4815,45.5048],[-76.5011,45.519],[-76.5179,45.516],[-76.5726,45.5276],[-76.6037,45.5322],[-76.6319,45.5441],[-76.6593,45.5607],[-76.6745,45.5833],[-76.6701,45.6151],[-76.6703,45.6258],[-76.687,45.6353],[-76.699,45.6534],[-76.7119,45.6655],[-76.7051,45.6759],[-76.6908,45.6794],[-76.6865,45.687],[-76.6954,45.699],[-76.6928,45.7087],[-76.7036,45.7208],[-76.7202,45.7193],[-76.7447,45.7231],[-76.7696,45.7335],[-76.7707,45.7582],[-76.7752,45.7745],[-76.7814,45.7853],[-76.7658,45.811],[-76.77,45.8297],[-76.7647,45.851],[-76.7734,45.8595],[-76.7787,45.8714],[-76.8074,45.8773],[-76.8416,45.8904],[-76.8754,45.8926],[-76.8948,45.8981],[-76.9276,45.8923],[-76.9299,45.8878],[-76.922,45.8698],[-76.9097,45.8634],[-76.9014,45.8551],[-76.9104,45.8473],[-76.9277,45.845],[-76.912,45.8097],[-76.9184,45.7984],[-76.9353,45.7891],[-76.985,45.7861],[-76.9943,45.7903],[-77.0112,45.8042],[-77.0248,45.8086],[-77.0424,45.8073],[-77.0537,45.8106],[-77.0668,45.8279],[-77.0816,45.8356],[-77.1315,45.844],[-77.1543,45.8547],[-77.1903,45.8639],[-77.2304,45.9055],[-77.2362,45.9205],[-77.2575,45.9292],[-77.2729,45.9411],[-77.2784,45.9489],[-77.2867,45.9865],[-77.2763,46.0085],[-77.2831,46.0177],[-77.3147,46.0269],[-77.3324,46.0419],[-77.3624,46.0595],[-77.3896,46.0683],[-77.4419,46.0933],[-77.4894,46.1175],[-77.5661,46.1592],[-77.609,46.1732],[-77.6205,46.1749],[-77.675,46.1985],[-77.6804,46.1983],[-77.6886,46.1849],[-77.6978,46.1829],[-77.711,46.1887],[-77.7296,46.1931],[-77.7839,46.1959],[-77.8161,46.2035],[-77.8451,46.2083],[-77.8633,46.2094],[-77.8809,46.2164],[-77.9061,46.2218],[-77.9268,46.2241],[-77.988,46.2466],[-78.0146,46.2482],[-78.0427,46.2425],[-78.0668,46.2467],[-78.089,46.2565],[-78.1173,46.2637],[-78.1351,46.2747],[-78.1702,46.2763],[-78.2197,46.2701],[-78.2397,46.275],[-78.2605,46.2739],[-78.2894,46.2595],[-78.3096,46.2532],[-78.344,46.2662],[-78.3884,46.2917],[-78.4153,46.2948],[-78.4839,46.2958],[-78.4976,46.2945],[-78.5139,46.2969],[-78.5531,46.3094],[-78.5971,46.3189],[-78.631,46.3212],[-78.6758,46.3182],[-78.6973,46.3197],[-78.7115,46.326],[-78.7282,46.3423],[-78.7294,46.3483],[-78.7225,46.3708],[-78.7271,46.3829],[-78.7395,46.3892],[-78.7582,46.3934],[-78.7864,46.4136],[-78.8113,46.4266],[-78.863,46.4456],[-78.8927,46.4619],[-78.8996,46.4699],[-78.9171,46.4822],[-78.9465,46.5133],[-78.9555,46.5167],[-78.9899,46.5489],[-78.9972,46.5659],[-78.9957,46.5909],[-79.0092,46.6044],[-79.0153,46.6269],[-79.0274,46.6382],[-79.0531,46.6499],[-79.0719,46.6642],[-79.0943,46.6883],[-79.0993,46.7089],[-79.1211,46.7344],[-79.1232,46.7442],[-79.1416,46.7772],[-79.1431,46.786],[-79.1548,46.8048],[-79.1708,46.8252],[-79.214,46.8332],[-79.2237,46.8427],[-79.2388,46.8626],[-79.2574,46.8808],[-79.2768,46.8953],[-79.3056,46.9278],[-79.3297,46.9572],[-79.3375,46.9709],[-79.338,46.9844],[-79.3468,47.0079],[-79.3538,47.0144],[-79.3767,47.0289],[-79.4209,47.0697],[-79.435,47.0842],[-79.443,47.101],[-79.441,47.1501],[-79.432,47.18],[-79.4321,47.1913],[-79.4375,47.2193],[-79.4266,47.2368],[-79.4268,47.2501],[-79.4501,47.2772],[-79.4778,47.2985],[-79.483,47.3111],[-79.5017,47.328],[-79.5145,47.3433],[-79.5401,47.3662],[-79.581,47.4151],[-79.5869,47.4331],[-79.5865,47.4456],[-79.5788,47.4583],[-79.5607,47.4777],[-79.5563,47.4911],[-79.5562,47.504],[-79.5474,47.5178],[-79.5171,47.5332],[-79.5105,47.5436],[-79.5178,47.5583],[-79.5175,47.6104],[-79.5178,47.7385],[-79.5178,47.892],[-79.5174,47.9964],[-79.518,48.0581],[-79.5176,48.1473],[-79.5174,48.2878],[-79.5174,48.4167],[-79.5176,48.5256],[-79.5177,48.6693],[-79.5174,48.8057],[-79.5181,48.9774],[-79.5179,49.1906],[-79.5179,49.3131],[-79.5178,49.4922],[-79.5177,49.677],[-79.5179,49.865],[-79.5175,50],[-79.5175,50.1654],[-79.518,50.1947],[-79.5179,50.3828],[-79.5179,50.5],[-79.5179,50.6317],[-79.5179,50.762],[-79.5179,50.886],[-79.5179,51.0096],[-79.519,51.0623],[-79.5178,51.2244],[-79.5158,51.4607],[-79.542,51.467],[-79.5683,51.469],[-79.5761,51.4635],[-79.5815,51.447],[-79.598,51.4391],[-79.6057,51.4388],[-79.6085,51.4278],[-79.6202,51.4204],[-79.6365,51.4163],[-79.6392,51.4071],[-79.6649,51.4078],[-79.6817,51.4056],[-79.6865,51.3993],[-79.6849,51.3884],[-79.6889,51.3794],[-79.6738,51.3501],[-79.6861,51.3488],[-79.6984,51.3594],[-79.7103,51.3631],[-79.711,51.3819],[-79.7275,51.3708],[-79.7266,51.3545],[-79.7409,51.3455],[-79.7378,51.3334],[-79.7455,51.3292],[-79.7063,51.3011],[-79.6945,51.2986],[-79.6899,51.2855],[-79.6936,51.2669],[-79.6733,51.253],[-79.7074,51.2461],[-79.7242,51.2388],[-79.7303,51.2328],[-79.7507,51.2035],[-79.763,51.1915],[-79.7721,51.1882],[-79.7848,51.1735],[-79.7835,51.1645],[-79.7726,51.1564],[-79.784,51.1524],[-79.7902,51.1599],[-79.8594,51.1654],[-79.8854,51.1723],[-79.9244,51.1922],[-79.9781,51.2388],[-79.9946,51.249],[-79.9996,51.2453],[-80.0205,51.2547],[-80.0517,51.257],[-80.0657,51.2624],[-80.0818,51.2739],[-80.0957,51.2763],[-80.1134,51.2908],[-80.1798,51.2927],[-80.1977,51.2965],[-80.2207,51.2978],[-80.2501,51.3035],[-80.2772,51.3111],[-80.3144,51.3153],[-80.3242,51.3254],[-80.3449,51.3267],[-80.3655,51.3357],[-80.3851,51.3387],[-80.3965,51.3293],[-80.418,51.3444],[-80.4034,51.3535],[-80.416,51.373],[-80.4072,51.4016],[-80.4334,51.4013],[-80.4356,51.4072],[-80.4279,51.4488],[-80.4319,51.4653],[-80.4502,51.4947],[-80.4622,51.4964],[-80.4773,51.5041],[-80.4992,51.5275],[-80.5126,51.5476],[-80.5118,51.5534],[-80.5209,51.5703],[-80.5242,51.5857],[-80.5383,51.604],[-80.5436,51.6176],[-80.5581,51.6441],[-80.5665,51.6678],[-80.5639,51.6884],[-80.5704,51.7081],[-80.5822,51.7131],[-80.6023,51.7293],[-80.6106,51.7413],[-80.619,51.7447],[-80.6409,51.7626],[-80.6557,51.7831],[-80.6544,51.7902],[-80.6866,51.7993],[-80.6949,51.8211],[-80.7191,51.8196],[-80.7324,51.8341],[-80.7513,51.842],[-80.7527,51.8522],[-80.7685,51.8512],[-80.7895,51.8615],[-80.7989,51.8852],[-80.8114,51.8856],[-80.8218,51.8769],[-80.8381,51.8798],[-80.8461,51.888],[-80.8593,51.8878],[-80.8667,51.8935],[-80.8803,51.8952],[-80.8905,51.9071],[-80.9161,51.9237],[-80.9232,51.936],[-80.9366,51.9504],[-80.9469,51.97],[-80.9731,51.9895],[-80.9723,52.0017],[-80.9928,52.0152],[-81.0014,52.0113],[-81.0327,52.0187],[-81.0444,52.0345],[-81.0621,52.0335],[-81.0822,52.0447],[-81.0787,52.0583],[-81.0946,52.0576],[-81.1131,52.0453],[-81.1353,52.0426],[-81.1612,52.0446],[-81.1782,52.0565],[-81.2099,52.063],[-81.2195,52.0627],[-81.2566,52.0737],[-81.2748,52.0823],[-81.3084,52.0937],[-81.3404,52.0989],[-81.3822,52.1195],[-81.3838,52.1309],[-81.4168,52.1502],[-81.406,52.1548],[-81.4196,52.1634],[-81.4296,52.1742],[-81.443,52.1985],[-81.4745,52.2184],[-81.5,52.2269],[-81.5,52.2386],[-81.4762,52.236],[-81.4455,52.2276],[-81.4463,52.2328],[-81.4692,52.2535],[-81.4702,52.261],[-81.4893,52.2716],[-81.5005,52.2828],[-81.5561,52.2912],[-81.5546,52.3001],[-81.5428,52.3098],[-81.5305,52.3133],[-81.5113,52.3237],[-81.5136,52.3325],[-81.5296,52.3436],[-81.5439,52.3634],[-81.5447,52.3881],[-81.5323,52.395],[-81.5253,52.4232],[-81.532,52.4426],[-81.5624,52.4626],[-81.5994,52.4715],[-81.6428,52.4956],[-81.6596,52.5082],[-81.6951,52.5401],[-81.7079,52.5546],[-81.7287,52.5717],[-81.7514,52.5929],[-81.7601,52.6063],[-81.8098,52.6326],[-81.8394,52.6435],[-81.8598,52.6531],[-81.8819,52.668],[-81.9179,52.704],[-81.9268,52.7263],[-81.9324,52.7469],[-81.9299,52.7536],[-81.9351,52.7655],[-81.9496,52.7717],[-81.9434,52.7772],[-82.0039,52.8124],[-82.0228,52.8305],[-82.0615,52.8557],[-82.1097,52.8911],[-82.127,52.8986],[-82.168,52.8921],[-82.1598,52.9027],[-82.1814,52.9061],[-82.2359,52.926],[-82.2381,52.9352],[-82.2477,52.9431],[-82.2516,52.9573],[-82.2627,52.9544],[-82.2832,52.9577],[-82.281,52.9666],[-82.2601,52.9691],[-82.2641,52.9947],[-82.2728,52.9975],[-82.2788,53.0097],[-82.2778,53.0285],[-82.2812,53.0485],[-82.2813,53.0866],[-82.283,53.1002],[-82.2797,53.1165],[-82.2713,53.1225],[-82.2684,53.1348],[-82.2731,53.1432],[-82.2521,53.1805],[-82.2381,53.1935],[-82.2216,53.2],[-82.216,53.2167],[-82.1996,53.2213],[-82.1643,53.242],[-82.1123,53.2652],[-82.1081,53.2741],[-82.1211,53.2966],[-82.1105,53.3063],[-82.1196,53.3207],[-82.1214,53.343],[-82.1401,53.3989],[-82.1648,53.4463],[-82.1618,53.4575],[-82.1683,53.4646],[-82.1676,53.473],[-82.1757,53.4798],[-82.191,53.5124],[-82.203,53.5179],[-82.1986,53.5296],[-82.2045,53.5508],[-82.2017,53.5716],[-82.2059,53.5836],[-82.2148,53.5907],[-82.2052,53.6021],[-82.2019,53.6224],[-82.207,53.6283],[-82.2001,53.6532],[-82.1896,53.6662],[-82.1781,53.6942],[-82.1583,53.7246],[-82.1455,53.7404],[-82.1271,53.7558],[-82.1199,53.7747],[-82.1211,53.8018],[-82.1243,53.8273],[-82.1345,53.8472],[-82.146,53.8762],[-82.1649,53.9013],[-82.1711,53.9177],[-82.1843,53.9389],[-82.1877,53.958],[-82.1954,53.9679],[-82.186,53.9798],[-82.2042,53.9958],[-82.2235,54.0248],[-82.2552,54.0637],[-82.2777,54.0837],[-82.3066,54.1046],[-82.3461,54.1276],[-82.3648,54.1445],[-82.3898,54.1762],[-82.4076,54.1925],[-82.4306,54.1994],[-82.4228,54.2132],[-82.4196,54.2313],[-82.4255,54.2355],[-82.4299,54.2487],[-82.4324,54.2771],[-82.4277,54.3086],[-82.4226,54.3167],[-82.4239,54.346],[-82.4081,54.3638],[-82.3977,54.3932],[-82.3907,54.3978],[-82.3835,54.4248],[-82.3589,54.4543],[-82.3536,54.474],[-82.3434,54.4994],[-82.3343,54.498],[-82.3235,54.5057],[-82.3164,54.5236],[-82.3063,54.5624],[-82.2959,54.6093],[-82.2846,54.627],[-82.2828,54.6401],[-82.2884,54.6544],[-82.2669,54.6856],[-82.2562,54.7158],[-82.2456,54.7309],[-82.2378,54.7355],[-82.2286,54.7504],[-82.2151,54.7583],[-82.1954,54.8043],[-82.1968,54.8423],[-82.2129,54.8745],[-82.2355,54.8629],[-82.2516,54.876],[-82.2606,54.8922],[-82.2633,54.906],[-82.2557,54.9155],[-82.237,54.9121],[-82.2289,54.916],[-82.2512,54.9359],[-82.2551,54.9421],[-82.2598,54.9867],[-82.2654,54.993],[-82.2645,55.0064],[-82.2769,55.0239],[-82.277,55.0392],[-82.2718,55.0499],[-82.2459,55.0618],[-82.2473,55.0802],[-82.2525,55.0929],[-82.2526,55.1097],[-82.3027,55.1183],[-82.303,55.1267],[-82.3172,55.1408],[-82.331,55.15],[-82.3342,55.1372],[-82.3088,55.1166],[-82.3089,55.1049],[-82.3337,55.1014],[-82.324,55.0784],[-82.3119,55.0714],[-82.3061,55.061],[-82.3086,55.0538],[-82.3625,55.0721],[-82.375,55.0693],[-82.3866,55.0743],[-82.413,55.0799],[-82.4076,55.0923],[-82.4153,55.1088],[-82.44,55.1129],[-82.4482,55.1181],[-82.4551,55.1332],[-82.4834,55.1287],[-82.4892,55.1385],[-82.5099,55.1497],[-82.5335,55.1478],[-82.5299,55.1346],[-82.5535,55.1322],[-82.574,55.1442],[-82.5889,55.1493],[-82.6094,55.1464],[-82.6382,55.1457],[-82.6434,55.1525],[-82.6598,55.1604],[-82.6505,55.1687],[-82.6567,55.1744],[-82.6882,55.1663],[-82.7153,55.1615],[-82.7176,55.1437],[-82.7514,55.1315],[-82.7784,55.1289],[-82.8133,55.1302],[-82.8397,55.1372],[-82.8524,55.1432],[-82.8804,55.1457],[-82.8805,55.1574],[-82.8936,55.1718],[-82.909,55.1974],[-82.9217,55.2105],[-82.9444,55.2194],[-82.9733,55.2263],[-82.9889,55.2257],[-83.001,55.2204],[-83.0179,55.2209],[-83.0357,55.2173],[-83.0662,55.2075],[-83.0833,55.2094],[-83.1149,55.2017],[-83.1252,55.2042],[-83.1536,55.1955],[-83.1726,55.1958],[-83.1979,55.1997],[-83.2204,55.2117],[-83.2517,55.2143],[-83.2493,55.2091],[-83.2698,55.2043],[-83.2931,55.2087],[-83.3105,55.2058],[-83.3223,55.2002],[-83.3375,55.1987],[-83.3661,55.2035],[-83.3807,55.2139],[-83.4177,55.2226],[-83.4315,55.2215],[-83.4405,55.2128],[-83.46,55.214],[-83.4823,55.2194],[-83.512,55.2313],[-83.5574,55.2472],[-83.6218,55.2511],[-83.6442,55.259],[-83.647,55.2639],[-83.6722,55.2695],[-83.6943,55.268],[-83.6985,55.2587],[-83.7095,55.2578],[-83.7453,55.2486],[-83.7467,55.2522],[-83.7825,55.2607],[-83.79,55.2661],[-83.8188,55.2775],[-83.8368,55.2782],[-83.8778,55.2885],[-83.8833,55.2941],[-83.9383,55.2932],[-83.9761,55.2873],[-83.9954,55.28],[-83.9992,55.2738],[-84.0787,55.2502],[-84.1046,55.2527],[-84.144,55.2629],[-84.1744,55.2746],[-84.1916,55.2706],[-84.2125,55.2721],[-84.2201,55.2675],[-84.2731,55.2658],[-84.289,55.2678],[-84.3061,55.2752],[-84.3289,55.2671],[-84.3452,55.265],[-84.3513,55.2594],[-84.3684,55.2595],[-84.3892,55.2636],[-84.4418,55.2543],[-84.4543,55.2479],[-84.4946,55.2358],[-84.5122,55.2321],[-84.5303,55.237],[-84.5365,55.2302],[-84.5628,55.2365],[-84.5951,55.2372],[-84.646,55.2338],[-84.6821,55.2361],[-84.7111,55.2328],[-84.7268,55.2375],[-84.7561,55.2387],[-84.7761,55.2347],[-84.7946,55.2353],[-84.8006,55.2431],[-84.8262,55.2502],[-84.8563,55.2521],[-84.8829,55.2586],[-84.9021,55.2691],[-84.9242,55.2641],[-84.9462,55.2688],[-84.9723,55.2797],[-84.99,55.2777],[-85.0015,55.27],[-85.0115,55.2725],[-85.0492,55.2732],[-85.0958,55.2604],[-85.1133,55.259],[-85.1292,55.2638],[-85.1335,55.2726],[-85.1103,55.2918],[-85.1122,55.3109],[-85.1248,55.3186],[-85.132,55.3319],[-85.1471,55.3347],[-85.1616,55.345],[-85.1803,55.3478],[-85.2004,55.3431],[-85.2222,55.3524],[-85.2299,55.3728],[-85.2438,55.3744],[-85.29,55.3715],[-85.3115,55.3799],[-85.3323,55.3795],[-85.3432,55.3751],[-85.3529,55.3848],[-85.3814,55.3996],[-85.4012,55.4039],[-85.4086,55.4103],[-85.4339,55.4177],[-85.4456,55.428],[-85.4623,55.4317],[-85.4764,55.4428],[-85.4991,55.4517],[-85.5067,55.4646],[-85.5382,55.4827],[-85.5555,55.4969],[-85.574,55.4991],[-85.576,55.506],[-85.6018,55.529],[-85.6247,55.533],[-85.6232,55.5373],[-85.6439,55.558],[-85.6717,55.5612],[-85.6773,55.5688],[-85.6976,55.58],[-85.7291,55.5934],[-85.7407,55.5906],[-85.7731,55.5936],[-85.7931,55.6015],[-85.8211,55.6183],[-85.8336,55.6218],[-85.8471,55.6197],[-85.8626,55.6255],[-85.871,55.6341],[-85.8863,55.6389],[-85.8952,55.6549],[-85.9315,55.6602],[-85.9671,55.6613],[-86.0056,55.6713],[-86.0432,55.6692],[-86.0621,55.6759],[-86.1053,55.6813],[-86.1344,55.6901],[-86.145,55.6893],[-86.1879,55.6965],[-86.2154,55.6989],[-86.2695,55.7089],[-86.3078,55.7254],[-86.3311,55.7376],[-86.339,55.7452],[-86.3749,55.7643],[-86.4664,55.7885],[-86.5116,55.7997],[-86.5529,55.8081],[-86.5894,55.8234],[-86.6216,55.8292],[-86.6439,55.8284],[-86.6733,55.8336],[-86.7221,55.8522],[-86.7642,55.8699],[-86.7809,55.8711],[-86.7882,55.8765],[-86.8192,55.8849],[-86.8402,55.8936],[-86.8615,55.8972],[-86.9012,55.9141],[-86.9393,55.9147],[-86.9517,55.9179],[-86.9699,55.9162],[-86.9848,55.9183],[-87.023,55.9157],[-87.0441,55.9236],[-87.0689,55.9224],[-87.1075,55.9269],[-87.1218,55.9305],[-87.1674,55.9364],[-87.1874,55.9365],[-87.213,55.9327],[-87.2212,55.9406],[-87.251,55.9422],[-87.2617,55.9468],[-87.3121,55.9605],[-87.3262,55.9657],[-87.3449,55.9669],[-87.3583,55.9756],[-87.373,55.99],[-87.4126,56],[-87.4373,56.0031],[-87.4807,56.0184],[-87.4671,56.0266],[-87.4632,56.0349],[-87.4722,56.0486],[-87.503,56.0521],[-87.5247,56.0599],[-87.5606,56.0562],[-87.5812,56.0518],[-87.592,56.0577],[-87.5715,56.0646],[-87.5785,56.0763],[-87.6288,56.0968],[-87.6392,56.1026],[-87.6374,56.1123],[-87.6663,56.139],[-87.6716,56.15],[-87.692,56.1694],[-87.7131,56.1931],[-87.7175,56.213],[-87.713,56.2149],[-87.7321,56.2362],[-87.7472,56.2448],[-87.7767,56.2666],[-87.7947,56.2898],[-87.7925,56.2944],[-87.8041,56.3106],[-87.8223,56.3192],[-87.835,56.3303],[-87.8321,56.3416],[-87.8701,56.3608],[-87.8981,56.3787],[-87.9237,56.3917],[-87.9415,56.4136],[-87.945,56.4331],[-87.9619,56.4602],[-87.9791,56.4731],[-88.0127,56.4787],[-88.0344,56.4866],[-88.1139,56.5058],[-88.1581,56.5137],[-88.1808,56.5121],[-88.2266,56.5246],[-88.2378,56.5301],[-88.2551,56.532],[-88.2772,56.5385],[-88.2901,56.5461],[-88.3522,56.5674],[-88.3564,56.5664],[-88.3818,56.5804],[-88.3962,56.5919],[-88.4285,56.6011],[-88.4439,56.6087],[-88.4849,56.6426],[-88.5081,56.6568],[-88.538,56.6588],[-88.5595,56.6627],[-88.619,56.683],[-88.643,56.6879],[-88.6689,56.702],[-88.675,56.7087],[-88.6746,56.7218],[-88.6904,56.7454],[-88.7256,56.7634],[-88.7734,56.7767],[-88.813,56.8012],[-88.8196,56.8104],[-88.8075,56.8194],[-88.8168,56.8379],[-88.8331,56.8392],[-88.8406,56.828],[-88.8588,56.8283],[-88.8582,56.8484],[-88.8731,56.856],[-88.874,56.8615]]]},"properties":{"PRUID":"35","DGUID":"2021A000235","PRNAME":"Ontario","PRENAME":"Ontario","PRFNAME":"Ontario","PREABBR":"Ont.","PRFABBR":"Ont.","LANDAREA":892411.7626}}
]}